X,Y,OBJECTID,SiteID,SensorDate,SensorID,ConfidenceID,Main_Damage_Site_Class,Grouped_Damage_Classes,FieldValidation,Notes,Settlement_Name,Neighborhood,EventCode,lon,lat
34.4536306890001,31.543046986,"1",Building (General / Default),2023/10/10 00:00:00,WorldView-2,Very High,Destroyed,Damaged Buildings,Not yet field validated,,Gaza strip,Gaza Governorate,CE20231007PSE,"34","32"
34.453531205,31.5431344780001,"2",Building (General / Default),2023/10/10 00:00:00,WorldView-2,Very High,Destroyed,Damaged Buildings,Not yet field validated,,Gaza strip,Gaza Governorate,CE20231007PSE,"34","32"
34.453393985,31.5432551570001,"3",Building (General / Default),2023/10/10 00:00:00,WorldView-2,Very High,Severe Damage,Damaged Buildings,Not yet field validated,,Gaza strip,Gaza Governorate,CE20231007PSE,"34","32"
34.453768369,31.5429560810001,"4",Building (General / Default),2023/10/10 00:00:00,WorldView-2,Very High,Severe Damage,Damaged Buildings,Not yet field validated,,Gaza strip,Gaza Governorate,CE20231007PSE,"34","32"
34.4523162,31.5441637760001,"5",Building (General / Default),2023/10/10 00:00:00,WorldView-2,Medium,Moderate Damage,Damaged Buildings,Not yet field validated,,Gaza strip,Gaza Governorate,CE20231007PSE,"34","32"
34.452135173,31.5437012670001,"6",Building (General / Default),2023/10/10 00:00:00,WorldView-2,Medium,Moderate Damage,Damaged Buildings,Not yet field validated,,Gaza strip,Gaza Governorate,CE20231007PSE,"34","32"
34.4543270970001,31.5397454210001,"7",Building (General / Default),2023/10/10 00:00:00,WorldView-2,Medium,Moderate Damage,Damaged Buildings,Not yet field validated,,Gaza strip,Gaza Governorate,CE20231007PSE,"34","32"
34.4520735420001,31.5401700830001,"8",Building (General / Default),2023/10/10 00:00:00,WorldView-2,Medium,Moderate Damage,Damaged Buildings,Not yet field validated,,Gaza strip,Gaza Governorate,CE20231007PSE,"34","32"
34.452401276,31.5400025710001,"9",Building (General / Default),2023/10/10 00:00:00,WorldView-2,Medium,Moderate Damage,Damaged Buildings,Not yet field validated,,Gaza strip,Gaza Governorate,CE20231007PSE,"34","32"
34.4507921030001,31.5370111710001,"10",Building (General / Default),2023/10/10 00:00:00,WorldView-2,Very High,Destroyed,Damaged Buildings,Not yet field validated,,Gaza strip,Gaza Governorate,CE20231007PSE,"34","32"
34.4505701580001,31.537192845,"11",Building (General / Default),2023/10/10 00:00:00,WorldView-2,Very High,Severe Damage,Damaged Buildings,Not yet field validated,,Gaza strip,Gaza Governorate,CE20231007PSE,"34","32"
34.4508953480001,31.5372120260001,"12",Building (General / Default),2023/10/10 00:00:00,WorldView-2,Very High,Severe Damage,Damaged Buildings,Not yet field validated,,Gaza strip,Gaza Governorate,CE20231007PSE,"34","32"
34.4506781760001,31.5368390260001,"13",Building (General / Default),2023/10/10 00:00:00,WorldView-2,Very High,Severe Damage,Damaged Buildings,Not yet field validated,,Gaza strip,Gaza Governorate,CE20231007PSE,"34","32"
34.4510738280001,31.5373853450001,"14",Building (General / Default),2023/10/10 00:00:00,WorldView-2,Medium,Moderate Damage,Damaged Buildings,Not yet field validated,,Gaza strip,Gaza Governorate,CE20231007PSE,"34","32"
34.4511708100001,31.5373251610001,"15",Building (General / Default),2023/10/10 00:00:00,WorldView-2,Medium,Moderate Damage,Damaged Buildings,Not yet field validated,,Gaza strip,Gaza Governorate,CE20231007PSE,"34","32"
34.4508780950001,31.5373913780001,"16",Building (General / Default),2023/10/10 00:00:00,WorldView-2,Medium,Moderate Damage,Damaged Buildings,Not yet field validated,,Gaza strip,Gaza Governorate,CE20231007PSE,"34","32"
34.45097079,31.5374856210001,"17",Building (General / Default),2023/10/10 00:00:00,WorldView-2,Medium,Moderate Damage,Damaged Buildings,Not yet field validated,,Gaza strip,Gaza Governorate,CE20231007PSE,"34","32"
34.4506599650001,31.5373881350001,"18",Building (General / Default),2023/10/10 00:00:00,WorldView-2,Medium,Moderate Damage,Damaged Buildings,Not yet field validated,,Gaza strip,Gaza Governorate,CE20231007PSE,"34","32"
34.4510271330001,31.5370999880001,"19",Building (General / Default),2023/10/10 00:00:00,WorldView-2,Medium,Moderate Damage,Damaged Buildings,Not yet field validated,,Gaza strip,Gaza Governorate,CE20231007PSE,"34","32"
34.4503747640001,31.537076895,"20",Building (General / Default),2023/10/10 00:00:00,WorldView-2,Medium,Moderate Damage,Damaged Buildings,Not yet field validated,,Gaza strip,Gaza Governorate,CE20231007PSE,"34","32"
34.4509471970001,31.536679689,"21",Building (General / Default),2023/10/10 00:00:00,WorldView-2,Medium,Moderate Damage,Damaged Buildings,Not yet field validated,,Gaza strip,Gaza Governorate,CE20231007PSE,"34","32"
34.4510818990001,31.5367563030001,"22",Building (General / Default),2023/10/10 00:00:00,WorldView-2,Medium,Moderate Damage,Damaged Buildings,Not yet field validated,,Gaza strip,Gaza Governorate,CE20231007PSE,"34","32"
34.451255899,31.5369277660001,"23",Building (General / Default),2023/10/10 00:00:00,WorldView-2,Medium,Moderate Damage,Damaged Buildings,Not yet field validated,,Gaza strip,Gaza Governorate,CE20231007PSE,"34","32"
34.4511703530001,31.5371517280001,"24",Building (General / Default),2023/10/10 00:00:00,WorldView-2,Medium,Moderate Damage,Damaged Buildings,Not yet field validated,,Gaza strip,Gaza Governorate,CE20231007PSE,"34","32"
34.4504398760001,31.536826482,"25",Building (General / Default),2023/10/10 00:00:00,WorldView-2,Medium,Moderate Damage,Damaged Buildings,Not yet field validated,,Gaza strip,Gaza Governorate,CE20231007PSE,"34","32"
34.4502949180001,31.5369501050001,"26",Building (General / Default),2023/10/10 00:00:00,WorldView-2,Medium,Moderate Damage,Damaged Buildings,Not yet field validated,,Gaza strip,Gaza Governorate,CE20231007PSE,"34","32"
34.4507059950001,31.5366233430001,"27",Building (General / Default),2023/10/10 00:00:00,WorldView-2,Medium,Moderate Damage,Damaged Buildings,Not yet field validated,,Gaza strip,Gaza Governorate,CE20231007PSE,"34","32"
34.443512663,31.5333636840001,"28",Building (General / Default),2023/10/10 00:00:00,WorldView-2,Very High,Destroyed,Damaged Buildings,Not yet field validated,,Gaza strip,Gaza Governorate,CE20231007PSE,"34","32"
34.443692174,31.5334607650001,"29",Building (General / Default),2023/10/10 00:00:00,WorldView-2,Very High,Destroyed,Damaged Buildings,Not yet field validated,,Gaza strip,Gaza Governorate,CE20231007PSE,"34","32"
34.4435126880001,31.53322074,"30",Building (General / Default),2023/10/10 00:00:00,WorldView-2,Very High,Severe Damage,Damaged Buildings,Not yet field validated,,Gaza strip,Gaza Governorate,CE20231007PSE,"34","32"
34.443339446,31.5332417550001,"31",Building (General / Default),2023/10/10 00:00:00,WorldView-2,Medium,Moderate Damage,Damaged Buildings,Not yet field validated,,Gaza strip,Gaza Governorate,CE20231007PSE,"34","32"
34.4437692760001,31.5332654910001,"32",Building (General / Default),2023/10/10 00:00:00,WorldView-2,Medium,Moderate Damage,Damaged Buildings,Not yet field validated,,Gaza strip,Gaza Governorate,CE20231007PSE,"34","32"
34.443224989,31.5334679440001,"33",Building (General / Default),2023/10/10 00:00:00,WorldView-2,Medium,Moderate Damage,Damaged Buildings,Not yet field validated,,Gaza strip,Gaza Governorate,CE20231007PSE,"34","32"
34.4431634530001,31.5333733430001,"34",Building (General / Default),2023/10/10 00:00:00,WorldView-2,Medium,Moderate Damage,Damaged Buildings,Not yet field validated,,Gaza strip,Gaza Governorate,CE20231007PSE,"34","32"
34.4434125230001,31.5336526070001,"35",Building (General / Default),2023/10/10 00:00:00,WorldView-2,Medium,Moderate Damage,Damaged Buildings,Not yet field validated,,Gaza strip,Gaza Governorate,CE20231007PSE,"34","32"
34.4432535670001,31.5337344500001,"36",Building (General / Default),2023/10/10 00:00:00,WorldView-2,Medium,Moderate Damage,Damaged Buildings,Not yet field validated,,Gaza strip,Gaza Governorate,CE20231007PSE,"34","32"
34.44387391,31.533557821,"37",Building (General / Default),2023/10/10 00:00:00,WorldView-2,Medium,Moderate Damage,Damaged Buildings,Not yet field validated,,Gaza strip,Gaza Governorate,CE20231007PSE,"34","32"
34.4437014910001,31.5337770410001,"38",Building (General / Default),2023/10/10 00:00:00,WorldView-2,Medium,Moderate Damage,Damaged Buildings,Not yet field validated,,Gaza strip,Gaza Governorate,CE20231007PSE,"34","32"
34.443662917,31.533005582,"39",Building (General / Default),2023/10/10 00:00:00,WorldView-2,Medium,Moderate Damage,Damaged Buildings,Not yet field validated,,Gaza strip,Gaza Governorate,CE20231007PSE,"34","32"
34.4439833330001,31.533438419,"40",Building (General / Default),2023/10/10 00:00:00,WorldView-2,Medium,Moderate Damage,Damaged Buildings,Not yet field validated,,Gaza strip,Gaza Governorate,CE20231007PSE,"34","32"
34.4440940580001,31.5333697350001,"41",Building (General / Default),2023/10/10 00:00:00,WorldView-2,Medium,Moderate Damage,Damaged Buildings,Not yet field validated,,Gaza strip,Gaza Governorate,CE20231007PSE,"34","32"
34.4441969110001,31.5332981600001,"42",Building (General / Default),2023/10/10 00:00:00,WorldView-2,Medium,Moderate Damage,Damaged Buildings,Not yet field validated,,Gaza strip,Gaza Governorate,CE20231007PSE,"34","32"
34.4587982020001,31.5415571540001,"43",Building (General / Default),2023/10/10 00:00:00,WorldView-2,Very High,Destroyed,Damaged Buildings,Not yet field validated,,Gaza strip,Gaza Governorate,CE20231007PSE,"34","32"
34.458944665,31.5416736490001,"44",Building (General / Default),2023/10/10 00:00:00,WorldView-2,Very High,Destroyed,Damaged Buildings,Not yet field validated,,Gaza strip,Gaza Governorate,CE20231007PSE,"34","32"
34.459166128,31.5416044150001,"45",Building (General / Default),2023/10/10 00:00:00,WorldView-2,Very High,Destroyed,Damaged Buildings,Not yet field validated,,Gaza strip,Gaza Governorate,CE20231007PSE,"34","32"
34.4585749860001,31.5417998440001,"46",Building (General / Default),2023/10/10 00:00:00,WorldView-2,Very High,Destroyed,Damaged Buildings,Not yet field validated,,Gaza strip,Gaza Governorate,CE20231007PSE,"34","32"
34.4587035600001,31.541910826,"47",Building (General / Default),2023/10/10 00:00:00,WorldView-2,Very High,Severe Damage,Damaged Buildings,Not yet field validated,,Gaza strip,Gaza Governorate,CE20231007PSE,"34","32"
34.4584798490001,31.5415493500001,"48",Building (General / Default),2023/10/10 00:00:00,WorldView-2,Medium,Moderate Damage,Damaged Buildings,Not yet field validated,,Gaza strip,Gaza Governorate,CE20231007PSE,"34","32"
34.45847818,31.54201441,"49",Building (General / Default),2023/10/10 00:00:00,WorldView-2,Medium,Moderate Damage,Damaged Buildings,Not yet field validated,,Gaza strip,Gaza Governorate,CE20231007PSE,"34","32"
34.4583985620001,31.5419464570001,"50",Building (General / Default),2023/10/10 00:00:00,WorldView-2,Medium,Moderate Damage,Damaged Buildings,Not yet field validated,,Gaza strip,Gaza Governorate,CE20231007PSE,"34","32"
34.4582778120001,31.5418661290001,"51",Building (General / Default),2023/10/10 00:00:00,WorldView-2,Medium,Moderate Damage,Damaged Buildings,Not yet field validated,,Gaza strip,Gaza Governorate,CE20231007PSE,"34","32"
34.4587892960001,31.5419860840001,"52",Building (General / Default),2023/10/10 00:00:00,WorldView-2,Medium,Moderate Damage,Damaged Buildings,Not yet field validated,,Gaza strip,Gaza Governorate,CE20231007PSE,"34","32"
34.459308622,31.541036735,"53",Building (General / Default),2023/10/10 00:00:00,WorldView-2,Very High,Severe Damage,Damaged Buildings,Not yet field validated,,Gaza strip,Gaza Governorate,CE20231007PSE,"34","32"
34.45854576,31.5384896200001,"54",Building (General / Default),2023/10/10 00:00:00,WorldView-2,Very High,Destroyed,Damaged Buildings,Not yet field validated,,Gaza strip,Gaza Governorate,CE20231007PSE,"34","32"
34.4583837580001,31.5383752070001,"55",Building (General / Default),2023/10/10 00:00:00,WorldView-2,Medium,Moderate Damage,Damaged Buildings,Not yet field validated,,Gaza strip,Gaza Governorate,CE20231007PSE,"34","32"
34.4587482900001,31.538348178,"56",Building (General / Default),2023/10/10 00:00:00,WorldView-2,Medium,Moderate Damage,Damaged Buildings,Not yet field validated,,Gaza strip,Gaza Governorate,CE20231007PSE,"34","32"
34.4588913060001,31.5385295140001,"57",Building (General / Default),2023/10/10 00:00:00,WorldView-2,Medium,Moderate Damage,Damaged Buildings,Not yet field validated,,Gaza strip,Gaza Governorate,CE20231007PSE,"34","32"
34.4588421460001,31.5388026190001,"58",Building (General / Default),2023/10/10 00:00:00,WorldView-2,Medium,Moderate Damage,Damaged Buildings,Not yet field validated,,Gaza strip,Gaza Governorate,CE20231007PSE,"34","32"
34.4580744560001,31.538662715,"59",Building (General / Default),2023/10/10 00:00:00,WorldView-2,Medium,Moderate Damage,Damaged Buildings,Not yet field validated,,Gaza strip,Gaza Governorate,CE20231007PSE,"34","32"
34.4584906060001,31.5388066290001,"60",Building (General / Default),2023/10/10 00:00:00,WorldView-2,Very High,Severe Damage,Damaged Buildings,Not yet field validated,,Gaza strip,Gaza Governorate,CE20231007PSE,"34","32"
34.4583594850001,31.538674712,"61",Building (General / Default),2023/10/10 00:00:00,WorldView-2,Very High,Severe Damage,Damaged Buildings,Not yet field validated,,Gaza strip,Gaza Governorate,CE20231007PSE,"34","32"
34.4582475240001,31.5387731900001,"62",Building (General / Default),2023/10/10 00:00:00,WorldView-2,Medium,Moderate Damage,Damaged Buildings,Not yet field validated,,Gaza strip,Gaza Governorate,CE20231007PSE,"34","32"
34.458706131,31.5386421690001,"63",Building (General / Default),2023/10/10 00:00:00,WorldView-2,Medium,Moderate Damage,Damaged Buildings,Not yet field validated,,Gaza strip,Gaza Governorate,CE20231007PSE,"34","32"
34.4602055840001,31.5385438150001,"64",Building (General / Default),2023/10/10 00:00:00,WorldView-2,Very High,Severe Damage,Damaged Buildings,Not yet field validated,,Gaza strip,Gaza Governorate,CE20231007PSE,"34","32"
34.4594802540001,31.5393385200001,"65",Building (General / Default),2023/10/10 00:00:00,WorldView-2,Very High,Destroyed,Damaged Buildings,Not yet field validated,,Gaza strip,Gaza Governorate,CE20231007PSE,"34","32"
34.4595941730001,31.539222866,"66",Building (General / Default),2023/10/10 00:00:00,WorldView-2,Very High,Destroyed,Damaged Buildings,Not yet field validated,,Gaza strip,Gaza Governorate,CE20231007PSE,"34","32"
34.4596645110001,31.5391667920001,"67",Building (General / Default),2023/10/10 00:00:00,WorldView-2,Very High,Destroyed,Damaged Buildings,Not yet field validated,,Gaza strip,Gaza Governorate,CE20231007PSE,"34","32"
34.4597300730001,31.539089807,"68",Building (General / Default),2023/10/10 00:00:00,WorldView-2,Very High,Destroyed,Damaged Buildings,Not yet field validated,,Gaza strip,Gaza Governorate,CE20231007PSE,"34","32"
34.459881963,31.5389832480001,"69",Building (General / Default),2023/10/10 00:00:00,WorldView-2,Very High,Destroyed,Damaged Buildings,Not yet field validated,,Gaza strip,Gaza Governorate,CE20231007PSE,"34","32"
34.45939458,31.5392670740001,"70",Building (General / Default),2023/10/10 00:00:00,WorldView-2,Very High,Destroyed,Damaged Buildings,Not yet field validated,,Gaza strip,Gaza Governorate,CE20231007PSE,"34","32"
34.4592616470001,31.53916186,"71",Building (General / Default),2023/10/10 00:00:00,WorldView-2,Very High,Severe Damage,Damaged Buildings,Not yet field validated,,Gaza strip,Gaza Governorate,CE20231007PSE,"34","32"
34.460474865,31.5387592040001,"72",Building (General / Default),2023/10/10 00:00:00,WorldView-2,Very High,Destroyed,Damaged Buildings,Not yet field validated,,Gaza strip,Gaza Governorate,CE20231007PSE,"34","32"
34.4605539240001,31.5388345370001,"73",Building (General / Default),2023/10/10 00:00:00,WorldView-2,Medium,Moderate Damage,Damaged Buildings,Not yet field validated,,Gaza strip,Gaza Governorate,CE20231007PSE,"34","32"
34.4595846810001,31.53889897,"74",Building (General / Default),2023/10/10 00:00:00,WorldView-2,Medium,Moderate Damage,Damaged Buildings,Not yet field validated,,Gaza strip,Gaza Governorate,CE20231007PSE,"34","32"
34.4596787520001,31.5387949770001,"75",Building (General / Default),2023/10/10 00:00:00,WorldView-2,Medium,Moderate Damage,Damaged Buildings,Not yet field validated,,Gaza strip,Gaza Governorate,CE20231007PSE,"34","32"
34.45920154,31.5395894690001,"76",Building (General / Default),2023/10/10 00:00:00,WorldView-2,Medium,Moderate Damage,Damaged Buildings,Not yet field validated,,Gaza strip,Gaza Governorate,CE20231007PSE,"34","32"
34.4589938780001,31.5395441910001,"77",Building (General / Default),2023/10/10 00:00:00,WorldView-2,Medium,Moderate Damage,Damaged Buildings,Not yet field validated,,Gaza strip,Gaza Governorate,CE20231007PSE,"34","32"
34.4522363940001,31.5355786860001,"78",Building (General / Default),2023/10/10 00:00:00,WorldView-2,Very High,Severe Damage,Damaged Buildings,Not yet field validated,,Gaza strip,Gaza Governorate,CE20231007PSE,"34","32"
34.452486718,31.5357931170001,"79",Building (General / Default),2023/10/10 00:00:00,WorldView-2,Medium,Moderate Damage,Damaged Buildings,Not yet field validated,,Gaza strip,Gaza Governorate,CE20231007PSE,"34","32"
34.4523074360001,31.5359990850001,"80",Building (General / Default),2023/10/10 00:00:00,WorldView-2,Medium,Moderate Damage,Damaged Buildings,Not yet field validated,,Gaza strip,Gaza Governorate,CE20231007PSE,"34","32"
34.451906292,31.535816862,"81",Building (General / Default),2023/10/10 00:00:00,WorldView-2,Medium,Moderate Damage,Damaged Buildings,Not yet field validated,,Gaza strip,Gaza Governorate,CE20231007PSE,"34","32"
34.4523920290001,31.5354263520001,"82",Building (General / Default),2023/10/10 00:00:00,WorldView-2,Medium,Moderate Damage,Damaged Buildings,Not yet field validated,,Gaza strip,Gaza Governorate,CE20231007PSE,"34","32"
34.452050049,31.5354721660001,"83",Building (General / Default),2023/10/10 00:00:00,WorldView-2,Medium,Moderate Damage,Damaged Buildings,Not yet field validated,,Gaza strip,Gaza Governorate,CE20231007PSE,"34","32"
34.454881308,31.529998005,"84",Building (General / Default),2023/10/10 00:00:00,WorldView-2,Very High,Destroyed,Damaged Buildings,Not yet field validated,,Gaza strip,Gaza Governorate,CE20231007PSE,"34","32"
34.4551737630001,31.530306941,"85",Building (General / Default),2023/10/10 00:00:00,WorldView-2,Medium,Moderate Damage,Damaged Buildings,Not yet field validated,,Gaza strip,Gaza Governorate,CE20231007PSE,"34","32"
34.455403087,31.5301262440001,"86",Building (General / Default),2023/10/10 00:00:00,WorldView-2,Medium,Moderate Damage,Damaged Buildings,Not yet field validated,,Gaza strip,Gaza Governorate,CE20231007PSE,"34","32"
34.4545959010001,31.5302354490001,"87",Building (General / Default),2023/10/10 00:00:00,WorldView-2,Medium,Moderate Damage,Damaged Buildings,Not yet field validated,,Gaza strip,Gaza Governorate,CE20231007PSE,"34","32"
34.4547270580001,31.530336419,"88",Building (General / Default),2023/10/10 00:00:00,WorldView-2,Medium,Moderate Damage,Damaged Buildings,Not yet field validated,,Gaza strip,Gaza Governorate,CE20231007PSE,"34","32"
34.4548327940001,31.530451096,"89",Building (General / Default),2023/10/10 00:00:00,WorldView-2,Medium,Moderate Damage,Damaged Buildings,Not yet field validated,,Gaza strip,Gaza Governorate,CE20231007PSE,"34","32"
34.4546472820001,31.5297835460001,"90",Building (General / Default),2023/10/10 00:00:00,WorldView-2,Medium,Moderate Damage,Damaged Buildings,Not yet field validated,,Gaza strip,Gaza Governorate,CE20231007PSE,"34","32"
34.4548451100001,31.5295922290001,"91",Building (General / Default),2023/10/10 00:00:00,WorldView-2,Medium,Moderate Damage,Damaged Buildings,Not yet field validated,,Gaza strip,Gaza Governorate,CE20231007PSE,"34","32"
34.452486638,31.5308668750001,"92",Building (General / Default),2023/10/10 00:00:00,WorldView-2,Medium,Moderate Damage,Damaged Buildings,Not yet field validated,,Gaza strip,Gaza Governorate,CE20231007PSE,"34","32"
34.4523854990001,31.5309570680001,"93",Building (General / Default),2023/10/10 00:00:00,WorldView-2,Medium,Moderate Damage,Damaged Buildings,Not yet field validated,,Gaza strip,Gaza Governorate,CE20231007PSE,"34","32"
34.4525952540001,31.5307997730001,"94",Building (General / Default),2023/10/10 00:00:00,WorldView-2,Medium,Moderate Damage,Damaged Buildings,Not yet field validated,,Gaza strip,Gaza Governorate,CE20231007PSE,"34","32"
34.4505636200001,31.5327407130001,"95",Building (General / Default),2023/10/10 00:00:00,WorldView-2,Very High,Destroyed,Damaged Buildings,Not yet field validated,,Gaza strip,Gaza Governorate,CE20231007PSE,"34","32"
34.4504581560001,31.5328276760001,"96",Building (General / Default),2023/10/10 00:00:00,WorldView-2,Medium,Moderate Damage,Damaged Buildings,Not yet field validated,,Gaza strip,Gaza Governorate,CE20231007PSE,"34","32"
34.450699495,31.5328935510001,"97",Building (General / Default),2023/10/10 00:00:00,WorldView-2,Medium,Moderate Damage,Damaged Buildings,Not yet field validated,,Gaza strip,Gaza Governorate,CE20231007PSE,"34","32"
34.4504127320001,31.5326242580001,"98",Building (General / Default),2023/10/10 00:00:00,WorldView-2,Medium,Moderate Damage,Damaged Buildings,Not yet field validated,,Gaza strip,Gaza Governorate,CE20231007PSE,"34","32"
34.450708041,31.53258279,"99",Building (General / Default),2023/10/10 00:00:00,WorldView-2,Medium,Moderate Damage,Damaged Buildings,Not yet field validated,,Gaza strip,Gaza Governorate,CE20231007PSE,"34","32"
34.4470940690001,31.5295361590001,"100",Building (General / Default),2023/10/10 00:00:00,WorldView-2,Very High,Destroyed,Damaged Buildings,Not yet field validated,,Gaza strip,Gaza Governorate,CE20231007PSE,"34","32"
34.447122086,31.53005425,"101",Building (General / Default),2023/10/10 00:00:00,WorldView-2,Medium,Moderate Damage,Damaged Buildings,Not yet field validated,,Gaza strip,Gaza Governorate,CE20231007PSE,"34","32"
34.4473404840001,31.5299317060001,"102",Building (General / Default),2023/10/10 00:00:00,WorldView-2,Medium,Moderate Damage,Damaged Buildings,Not yet field validated,,Gaza strip,Gaza Governorate,CE20231007PSE,"34","32"
34.4476029050001,31.5297781690001,"103",Building (General / Default),2023/10/10 00:00:00,WorldView-2,Medium,Moderate Damage,Damaged Buildings,Not yet field validated,,Gaza strip,Gaza Governorate,CE20231007PSE,"34","32"
34.4468510070001,31.5293578470001,"104",Building (General / Default),2023/10/10 00:00:00,WorldView-2,Medium,Moderate Damage,Damaged Buildings,Not yet field validated,,Gaza strip,Gaza Governorate,CE20231007PSE,"34","32"
34.446987177,31.5292419520001,"105",Building (General / Default),2023/10/10 00:00:00,WorldView-2,Medium,Moderate Damage,Damaged Buildings,Not yet field validated,,Gaza strip,Gaza Governorate,CE20231007PSE,"34","32"
34.4476127360001,31.5292615550001,"106",Building (General / Default),2023/10/10 00:00:00,WorldView-2,Medium,Moderate Damage,Damaged Buildings,Not yet field validated,,Gaza strip,Gaza Governorate,CE20231007PSE,"34","32"
34.4467404040001,31.5296888220001,"107",Building (General / Default),2023/10/10 00:00:00,WorldView-2,Medium,Moderate Damage,Damaged Buildings,Not yet field validated,,Gaza strip,Gaza Governorate,CE20231007PSE,"34","32"
34.44686734,31.529839859,"108",Building (General / Default),2023/10/10 00:00:00,WorldView-2,Medium,Moderate Damage,Damaged Buildings,Not yet field validated,,Gaza strip,Gaza Governorate,CE20231007PSE,"34","32"
34.4466112150001,31.5295359040001,"109",Building (General / Default),2023/10/10 00:00:00,WorldView-2,Medium,Moderate Damage,Damaged Buildings,Not yet field validated,,Gaza strip,Gaza Governorate,CE20231007PSE,"34","32"
34.4531438010001,31.526639189,"110",Building (General / Default),2023/10/10 00:00:00,WorldView-2,Very High,Destroyed,Damaged Buildings,Not yet field validated,,Gaza strip,Gaza Governorate,CE20231007PSE,"34","32"
34.4529068130001,31.526853438,"111",Building (General / Default),2023/10/10 00:00:00,WorldView-2,Very High,Destroyed,Damaged Buildings,Not yet field validated,,Gaza strip,Gaza Governorate,CE20231007PSE,"34","32"
34.4533598470001,31.5267968310001,"112",Building (General / Default),2023/10/10 00:00:00,WorldView-2,Medium,Moderate Damage,Damaged Buildings,Not yet field validated,,Gaza strip,Gaza Governorate,CE20231007PSE,"34","32"
34.4535267480001,31.5265109530001,"113",Building (General / Default),2023/10/10 00:00:00,WorldView-2,Medium,Moderate Damage,Damaged Buildings,Not yet field validated,,Gaza strip,Gaza Governorate,CE20231007PSE,"34","32"
34.453070074,31.5264761190001,"114",Building (General / Default),2023/10/10 00:00:00,WorldView-2,Medium,Moderate Damage,Damaged Buildings,Not yet field validated,,Gaza strip,Gaza Governorate,CE20231007PSE,"34","32"
34.4532652350001,31.5262909340001,"115",Building (General / Default),2023/10/10 00:00:00,WorldView-2,Medium,Moderate Damage,Damaged Buildings,Not yet field validated,,Gaza strip,Gaza Governorate,CE20231007PSE,"34","32"
34.4526997840001,31.5267033170001,"116",Building (General / Default),2023/10/10 00:00:00,WorldView-2,Very High,Severe Damage,Damaged Buildings,Not yet field validated,,Gaza strip,Gaza Governorate,CE20231007PSE,"34","32"
34.4530740050001,31.5270173530001,"117",Building (General / Default),2023/10/10 00:00:00,WorldView-2,Medium,Moderate Damage,Damaged Buildings,Not yet field validated,,Gaza strip,Gaza Governorate,CE20231007PSE,"34","32"
34.452893825,31.5271642490001,"118",Building (General / Default),2023/10/10 00:00:00,WorldView-2,Medium,Moderate Damage,Damaged Buildings,Not yet field validated,,Gaza strip,Gaza Governorate,CE20231007PSE,"34","32"
34.4524654530001,31.5253004030001,"119",Building (General / Default),2023/10/10 00:00:00,WorldView-2,Very High,Destroyed,Damaged Buildings,Not yet field validated,,Gaza strip,Gaza Governorate,CE20231007PSE,"34","32"
34.452740395,31.5251853870001,"120",Building (General / Default),2023/10/10 00:00:00,WorldView-2,Very High,Severe Damage,Damaged Buildings,Not yet field validated,,Gaza strip,Gaza Governorate,CE20231007PSE,"34","32"
34.4524714350001,31.5250206030001,"121",Building (General / Default),2023/10/10 00:00:00,WorldView-2,Medium,Moderate Damage,Damaged Buildings,Not yet field validated,,Gaza strip,Gaza Governorate,CE20231007PSE,"34","32"
34.4523543550001,31.5252295230001,"122",Building (General / Default),2023/10/10 00:00:00,WorldView-2,Medium,Moderate Damage,Damaged Buildings,Not yet field validated,,Gaza strip,Gaza Governorate,CE20231007PSE,"34","32"
34.4530465880001,31.525090628,"123",Building (General / Default),2023/10/10 00:00:00,WorldView-2,Medium,Moderate Damage,Damaged Buildings,Not yet field validated,,Gaza strip,Gaza Governorate,CE20231007PSE,"34","32"
34.4528761590001,31.5248511120001,"124",Building (General / Default),2023/10/10 00:00:00,WorldView-2,Medium,Moderate Damage,Damaged Buildings,Not yet field validated,,Gaza strip,Gaza Governorate,CE20231007PSE,"34","32"
34.453034964,31.5248949480001,"125",Building (General / Default),2023/10/10 00:00:00,WorldView-2,Medium,Moderate Damage,Damaged Buildings,Not yet field validated,,Gaza strip,Gaza Governorate,CE20231007PSE,"34","32"
34.4508581370001,31.5226497840001,"126",Building (General / Default),2023/10/10 00:00:00,WorldView-2,Very High,Destroyed,Damaged Buildings,Not yet field validated,,Gaza strip,Gaza Governorate,CE20231007PSE,"34","32"
34.4509947710001,31.522802363,"127",Building (General / Default),2023/10/10 00:00:00,WorldView-2,Very High,Severe Damage,Damaged Buildings,Not yet field validated,,Gaza strip,Gaza Governorate,CE20231007PSE,"34","32"
34.450643637,31.5224980890001,"128",Building (General / Default),2023/10/10 00:00:00,WorldView-2,Medium,Moderate Damage,Damaged Buildings,Not yet field validated,,Gaza strip,Gaza Governorate,CE20231007PSE,"34","32"
34.4451990330001,31.5234264250001,"129",Building (General / Default),2023/10/10 00:00:00,WorldView-2,Very High,Destroyed,Damaged Buildings,Not yet field validated,,Gaza strip,Gaza Governorate,CE20231007PSE,"34","32"
34.4450287020001,31.5235405830001,"130",Building (General / Default),2023/10/10 00:00:00,WorldView-2,Very High,Severe Damage,Damaged Buildings,Not yet field validated,,Gaza strip,Gaza Governorate,CE20231007PSE,"34","32"
34.4454769960001,31.523190442,"131",Building (General / Default),2023/10/10 00:00:00,WorldView-2,Medium,Moderate Damage,Damaged Buildings,Not yet field validated,,Gaza strip,Gaza Governorate,CE20231007PSE,"34","32"
34.4457209430001,31.5234121510001,"132",Building (General / Default),2023/10/10 00:00:00,WorldView-2,Medium,Moderate Damage,Damaged Buildings,Not yet field validated,,Gaza strip,Gaza Governorate,CE20231007PSE,"34","32"
34.4453403590001,31.523079753,"133",Building (General / Default),2023/10/10 00:00:00,WorldView-2,Medium,Moderate Damage,Damaged Buildings,Not yet field validated,,Gaza strip,Gaza Governorate,CE20231007PSE,"34","32"
34.445268506,31.5237472630001,"134",Building (General / Default),2023/10/10 00:00:00,WorldView-2,Medium,Moderate Damage,Damaged Buildings,Not yet field validated,,Gaza strip,Gaza Governorate,CE20231007PSE,"34","32"
34.4457169660001,31.5236617890001,"135",Building (General / Default),2023/10/10 00:00:00,WorldView-2,Medium,Moderate Damage,Damaged Buildings,Not yet field validated,,Gaza strip,Gaza Governorate,CE20231007PSE,"34","32"
34.441014125,31.5225322240001,"136",Building (General / Default),2023/10/10 00:00:00,WorldView-2,Very High,Destroyed,Damaged Buildings,Not yet field validated,,Gaza strip,Gaza Governorate,CE20231007PSE,"34","32"
34.441209799,31.5224127610001,"137",Building (General / Default),2023/10/10 00:00:00,WorldView-2,Medium,Moderate Damage,Damaged Buildings,Not yet field validated,,Gaza strip,Gaza Governorate,CE20231007PSE,"34","32"
34.4406357130001,31.5231043540001,"138",Building (General / Default),2023/10/10 00:00:00,WorldView-2,Medium,Moderate Damage,Damaged Buildings,Not yet field validated,,Gaza strip,Gaza Governorate,CE20231007PSE,"34","32"
34.4545275580001,31.5246079020001,"139",Building (General / Default),2023/10/10 00:00:00,WorldView-2,Very High,Destroyed,Damaged Buildings,Not yet field validated,,Gaza strip,Gaza Governorate,CE20231007PSE,"34","32"
34.4546152990001,31.524457086,"140",Building (General / Default),2023/10/10 00:00:00,WorldView-2,Very High,Destroyed,Damaged Buildings,Not yet field validated,,Gaza strip,Gaza Governorate,CE20231007PSE,"34","32"
34.4544578690001,31.524393547,"141",Building (General / Default),2023/10/10 00:00:00,WorldView-2,Medium,Moderate Damage,Damaged Buildings,Not yet field validated,,Gaza strip,Gaza Governorate,CE20231007PSE,"34","32"
34.454265176,31.524578326,"142",Building (General / Default),2023/10/10 00:00:00,WorldView-2,Medium,Moderate Damage,Damaged Buildings,Not yet field validated,,Gaza strip,Gaza Governorate,CE20231007PSE,"34","32"
34.4541969510001,31.5249710790001,"143",Building (General / Default),2023/10/10 00:00:00,WorldView-2,Medium,Moderate Damage,Damaged Buildings,Not yet field validated,,Gaza strip,Gaza Governorate,CE20231007PSE,"34","32"
34.4546727810001,31.5248852620001,"144",Building (General / Default),2023/10/10 00:00:00,WorldView-2,Medium,Moderate Damage,Damaged Buildings,Not yet field validated,,Gaza strip,Gaza Governorate,CE20231007PSE,"34","32"
34.4547972220001,31.5247129850001,"145",Building (General / Default),2023/10/10 00:00:00,WorldView-2,Very High,Severe Damage,Damaged Buildings,Not yet field validated,,Gaza strip,Gaza Governorate,CE20231007PSE,"34","32"
34.4541334200001,31.52238542,"146",Building (General / Default),2023/10/10 00:00:00,WorldView-2,Medium,Moderate Damage,Damaged Buildings,Not yet field validated,,Gaza strip,Gaza Governorate,CE20231007PSE,"34","32"
34.4544294990001,31.5225629660001,"147",Building (General / Default),2023/10/10 00:00:00,WorldView-2,Medium,Moderate Damage,Damaged Buildings,Not yet field validated,,Gaza strip,Gaza Governorate,CE20231007PSE,"34","32"
34.4547346360001,31.5221892950001,"148",Building (General / Default),2023/10/10 00:00:00,WorldView-2,Medium,Moderate Damage,Damaged Buildings,Not yet field validated,,Gaza strip,Gaza Governorate,CE20231007PSE,"34","32"
34.4546151010001,31.52192096,"149",Building (General / Default),2023/10/10 00:00:00,WorldView-2,Medium,Moderate Damage,Damaged Buildings,Not yet field validated,,Gaza strip,Gaza Governorate,CE20231007PSE,"34","32"
34.449556897,31.5208979330001,"150",Building (General / Default),2023/10/10 00:00:00,WorldView-2,Very High,Severe Damage,Damaged Buildings,Not yet field validated,,Gaza strip,Gaza Governorate,CE20231007PSE,"34","32"
34.449199304,31.519308003,"151",Building (General / Default),2023/10/10 00:00:00,WorldView-2,Very High,Severe Damage,Damaged Buildings,Not yet field validated,,Gaza strip,Gaza Governorate,CE20231007PSE,"34","32"
34.448914298,31.5190547290001,"152",Building (General / Default),2023/10/10 00:00:00,WorldView-2,Medium,Moderate Damage,Damaged Buildings,Not yet field validated,,Gaza strip,Gaza Governorate,CE20231007PSE,"34","32"
34.4495464110001,31.5190318630001,"153",Building (General / Default),2023/10/10 00:00:00,WorldView-2,Medium,Moderate Damage,Damaged Buildings,Not yet field validated,,Gaza strip,Gaza Governorate,CE20231007PSE,"34","32"
34.4518240630001,31.5157631040001,"154",Building (General / Default),2023/10/10 00:00:00,WorldView-2,Medium,Moderate Damage,Damaged Buildings,Not yet field validated,,Gaza strip,Gaza Governorate,CE20231007PSE,"34","32"
34.4515330330001,31.5155151390001,"155",Building (General / Default),2023/10/10 00:00:00,WorldView-2,Medium,Moderate Damage,Damaged Buildings,Not yet field validated,,Gaza strip,Gaza Governorate,CE20231007PSE,"34","32"
34.4628793430001,31.5225654330001,"156",Building (General / Default),2023/10/10 00:00:00,WorldView-2,Very High,Severe Damage,Damaged Buildings,Not yet field validated,,Gaza strip,Gaza Governorate,CE20231007PSE,"34","32"
34.4627443890001,31.5228148930001,"157",Building (General / Default),2023/10/10 00:00:00,WorldView-2,Medium,Moderate Damage,Damaged Buildings,Not yet field validated,,Gaza strip,Gaza Governorate,CE20231007PSE,"34","32"
34.4625785100001,31.5227112580001,"158",Building (General / Default),2023/10/10 00:00:00,WorldView-2,Medium,Moderate Damage,Damaged Buildings,Not yet field validated,,Gaza strip,Gaza Governorate,CE20231007PSE,"34","32"
34.4519542950001,31.5150094970001,"159",Building (General / Default),2023/10/10 00:00:00,WorldView-2,Very High,Destroyed,Damaged Buildings,Not yet field validated,,Gaza strip,Gaza Governorate,CE20231007PSE,"34","32"
34.452285525,31.5153122840001,"160",Building (General / Default),2023/10/10 00:00:00,WorldView-2,Very High,Severe Damage,Damaged Buildings,Not yet field validated,,Gaza strip,Gaza Governorate,CE20231007PSE,"34","32"
34.4525168640001,31.5150985920001,"161",Building (General / Default),2023/10/10 00:00:00,WorldView-2,Medium,Moderate Damage,Damaged Buildings,Not yet field validated,,Gaza strip,Gaza Governorate,CE20231007PSE,"34","32"
34.4514912400001,31.514780235,"162",Building (General / Default),2023/10/10 00:00:00,WorldView-2,Medium,Moderate Damage,Damaged Buildings,Not yet field validated,,Gaza strip,Gaza Governorate,CE20231007PSE,"34","32"
34.4546570210001,31.5112499740001,"163",Building (General / Default),2023/10/10 00:00:00,WorldView-2,Very High,Destroyed,Damaged Buildings,Not yet field validated,,Gaza strip,Gaza Governorate,CE20231007PSE,"34","32"
34.4548448340001,31.5111305790001,"164",Building (General / Default),2023/10/10 00:00:00,WorldView-2,Medium,Moderate Damage,Damaged Buildings,Not yet field validated,,Gaza strip,Gaza Governorate,CE20231007PSE,"34","32"
34.4547650360001,31.5116591500001,"165",Building (General / Default),2023/10/10 00:00:00,WorldView-2,Medium,Moderate Damage,Damaged Buildings,Not yet field validated,,Gaza strip,Gaza Governorate,CE20231007PSE,"34","32"
34.4552171650001,31.5114362420001,"166",Building (General / Default),2023/10/10 00:00:00,WorldView-2,Medium,Moderate Damage,Damaged Buildings,Not yet field validated,,Gaza strip,Gaza Governorate,CE20231007PSE,"34","32"
34.4551188120001,31.5115244670001,"167",Building (General / Default),2023/10/10 00:00:00,WorldView-2,Medium,Moderate Damage,Damaged Buildings,Not yet field validated,,Gaza strip,Gaza Governorate,CE20231007PSE,"34","32"
34.4549815680001,31.5116265350001,"168",Building (General / Default),2023/10/10 00:00:00,WorldView-2,Medium,Moderate Damage,Damaged Buildings,Not yet field validated,,Gaza strip,Gaza Governorate,CE20231007PSE,"34","32"
34.4614293170001,31.508308335,"169",Building (General / Default),2023/10/10 00:00:00,WorldView-2,Very High,Destroyed,Damaged Buildings,Not yet field validated,,Gaza strip,Gaza Governorate,CE20231007PSE,"34","32"
34.4612178250001,31.508412933,"170",Building (General / Default),2023/10/10 00:00:00,WorldView-2,Very High,Severe Damage,Damaged Buildings,Not yet field validated,,Gaza strip,Gaza Governorate,CE20231007PSE,"34","32"
34.4613150480001,31.508503954,"171",Building (General / Default),2023/10/10 00:00:00,WorldView-2,Very High,Severe Damage,Damaged Buildings,Not yet field validated,,Gaza strip,Gaza Governorate,CE20231007PSE,"34","32"
34.4616457610001,31.5083963180001,"172",Building (General / Default),2023/10/10 00:00:00,WorldView-2,Medium,Moderate Damage,Damaged Buildings,Not yet field validated,,Gaza strip,Gaza Governorate,CE20231007PSE,"34","32"
34.4615515620001,31.5084995770001,"173",Building (General / Default),2023/10/10 00:00:00,WorldView-2,Medium,Moderate Damage,Damaged Buildings,Not yet field validated,,Gaza strip,Gaza Governorate,CE20231007PSE,"34","32"
34.4614401600001,31.5086281590001,"174",Building (General / Default),2023/10/10 00:00:00,WorldView-2,Medium,Moderate Damage,Damaged Buildings,Not yet field validated,,Gaza strip,Gaza Governorate,CE20231007PSE,"34","32"
34.4612572360001,31.508181316,"175",Building (General / Default),2023/10/10 00:00:00,WorldView-2,Very High,Severe Damage,Damaged Buildings,Not yet field validated,,Gaza strip,Gaza Governorate,CE20231007PSE,"34","32"
34.4611205250001,31.508316887,"176",Building (General / Default),2023/10/10 00:00:00,WorldView-2,Medium,Moderate Damage,Damaged Buildings,Not yet field validated,,Gaza strip,Gaza Governorate,CE20231007PSE,"34","32"
34.474172384,31.5290989580001,"177",Building (General / Default),2023/10/10 00:00:00,WorldView-2,Very High,Destroyed,Damaged Buildings,Not yet field validated,,Gaza strip,Gaza Governorate,CE20231007PSE,"34","32"
34.47434187,31.5289726440001,"178",Building (General / Default),2023/10/10 00:00:00,WorldView-2,Medium,Moderate Damage,Damaged Buildings,Not yet field validated,,Gaza strip,Gaza Governorate,CE20231007PSE,"34","32"
34.4740317790001,31.528992299,"179",Building (General / Default),2023/10/10 00:00:00,WorldView-2,Medium,Moderate Damage,Damaged Buildings,Not yet field validated,,Gaza strip,Gaza Governorate,CE20231007PSE,"34","32"
34.4743535840001,31.52931986,"180",Building (General / Default),2023/10/10 00:00:00,WorldView-2,Medium,Moderate Damage,Damaged Buildings,Not yet field validated,,Gaza strip,Gaza Governorate,CE20231007PSE,"34","32"
34.474471136,31.529233811,"181",Building (General / Default),2023/10/10 00:00:00,WorldView-2,Medium,Moderate Damage,Damaged Buildings,Not yet field validated,,Gaza strip,Gaza Governorate,CE20231007PSE,"34","32"
34.4812171680001,31.516219591,"184",Building (General / Default),2023/10/10 00:00:00,WorldView-2,Very High,Destroyed,Damaged Buildings,Not yet field validated,,Gaza strip,Gaza Governorate,CE20231007PSE,"34","32"
34.481321129,31.516130564,"185",Building (General / Default),2023/10/10 00:00:00,WorldView-2,Very High,Destroyed,Damaged Buildings,Not yet field validated,,Gaza strip,Gaza Governorate,CE20231007PSE,"34","32"
34.4814402700001,31.516281656,"186",Building (General / Default),2023/10/10 00:00:00,WorldView-2,Medium,Moderate Damage,Damaged Buildings,Not yet field validated,,Gaza strip,Gaza Governorate,CE20231007PSE,"34","32"
34.4814434420001,31.516031565,"187",Building (General / Default),2023/10/10 00:00:00,WorldView-2,Medium,Moderate Damage,Damaged Buildings,Not yet field validated,,Gaza strip,Gaza Governorate,CE20231007PSE,"34","32"
34.4811138210001,31.5160768540001,"188",Building (General / Default),2023/10/10 00:00:00,WorldView-2,Medium,Moderate Damage,Damaged Buildings,Not yet field validated,,Gaza strip,Gaza Governorate,CE20231007PSE,"34","32"
34.4779191170001,31.5137477380001,"189",Building (General / Default),2023/10/10 00:00:00,WorldView-2,Very High,Severe Damage,Damaged Buildings,Not yet field validated,,Gaza strip,Gaza Governorate,CE20231007PSE,"34","32"
34.477675526,31.513678128,"190",Building (General / Default),2023/10/10 00:00:00,WorldView-2,Very High,Destroyed,Damaged Buildings,Not yet field validated,,Gaza strip,Gaza Governorate,CE20231007PSE,"34","32"
34.477586278,31.5138030430001,"191",Building (General / Default),2023/10/10 00:00:00,WorldView-2,Very High,Destroyed,Damaged Buildings,Not yet field validated,,Gaza strip,Gaza Governorate,CE20231007PSE,"34","32"
34.477550953,31.513961641,"192",Building (General / Default),2023/10/10 00:00:00,WorldView-2,Medium,Moderate Damage,Damaged Buildings,Not yet field validated,,Gaza strip,Gaza Governorate,CE20231007PSE,"34","32"
34.4784359930001,31.5129470030001,"193",Building (General / Default),2023/10/10 00:00:00,WorldView-2,Very High,Destroyed,Damaged Buildings,Not yet field validated,,Gaza strip,Gaza Governorate,CE20231007PSE,"34","32"
34.4782891550001,31.5130878310001,"194",Building (General / Default),2023/10/10 00:00:00,WorldView-2,Very High,Severe Damage,Damaged Buildings,Not yet field validated,,Gaza strip,Gaza Governorate,CE20231007PSE,"34","32"
34.4785954200001,31.5130404560001,"195",Building (General / Default),2023/10/10 00:00:00,WorldView-2,Very High,Severe Damage,Damaged Buildings,Not yet field validated,,Gaza strip,Gaza Governorate,CE20231007PSE,"34","32"
34.470087977,31.5115489780001,"196",Building (General / Default),2023/10/10 00:00:00,WorldView-2,Very High,Severe Damage,Damaged Buildings,Not yet field validated,,Gaza strip,Gaza Governorate,CE20231007PSE,"34","32"
34.4698680050001,31.511353172,"197",Building (General / Default),2023/10/10 00:00:00,WorldView-2,Very High,Severe Damage,Damaged Buildings,Not yet field validated,,Gaza strip,Gaza Governorate,CE20231007PSE,"34","32"
34.4702166500001,31.5112419580001,"198",Building (General / Default),2023/10/10 00:00:00,WorldView-2,Very High,Severe Damage,Damaged Buildings,Not yet field validated,,Gaza strip,Gaza Governorate,CE20231007PSE,"34","32"
34.470007034,31.511174682,"199",Building (General / Default),2023/10/10 00:00:00,WorldView-2,Medium,Moderate Damage,Damaged Buildings,Not yet field validated,,Gaza strip,Gaza Governorate,CE20231007PSE,"34","32"
34.4702746990001,31.511486081,"200",Building (General / Default),2023/10/10 00:00:00,WorldView-2,Medium,Moderate Damage,Damaged Buildings,Not yet field validated,,Gaza strip,Gaza Governorate,CE20231007PSE,"34","32"
34.47039349,31.5113471330001,"201",Building (General / Default),2023/10/10 00:00:00,WorldView-2,Medium,Moderate Damage,Damaged Buildings,Not yet field validated,,Gaza strip,Gaza Governorate,CE20231007PSE,"34","32"
34.437402106,31.5251945470001,"202",Building (General / Default),2023/10/10 00:00:00,WorldView-2,Very High,Destroyed,Damaged Buildings,Not yet field validated,,Gaza strip,Gaza Governorate,CE20231007PSE,"34","32"
34.437584943,31.525419416,"203",Building (General / Default),2023/10/10 00:00:00,WorldView-2,Very High,Severe Damage,Damaged Buildings,Not yet field validated,,Gaza strip,Gaza Governorate,CE20231007PSE,"34","32"
34.437610594,31.5255960200001,"204",Building (General / Default),2023/10/10 00:00:00,WorldView-2,Medium,Moderate Damage,Damaged Buildings,Not yet field validated,,Gaza strip,Gaza Governorate,CE20231007PSE,"34","32"
34.4371295370001,31.525512087,"205",Building (General / Default),2023/10/10 00:00:00,WorldView-2,Medium,Moderate Damage,Damaged Buildings,Not yet field validated,,Gaza strip,Gaza Governorate,CE20231007PSE,"34","32"
34.4368775140001,31.5254005640001,"206",Building (General / Default),2023/10/10 00:00:00,WorldView-2,Medium,Moderate Damage,Damaged Buildings,Not yet field validated,,Gaza strip,Gaza Governorate,CE20231007PSE,"34","32"
34.437612867,31.5250635290001,"207",Building (General / Default),2023/10/10 00:00:00,WorldView-2,Medium,Moderate Damage,Damaged Buildings,Not yet field validated,,Gaza strip,Gaza Governorate,CE20231007PSE,"34","32"
34.4377628820001,31.525324502,"208",Building (General / Default),2023/10/10 00:00:00,WorldView-2,Medium,Moderate Damage,Damaged Buildings,Not yet field validated,,Gaza strip,Gaza Governorate,CE20231007PSE,"34","32"
34.4378660940001,31.5252536570001,"209",Building (General / Default),2023/10/10 00:00:00,WorldView-2,Medium,Moderate Damage,Damaged Buildings,Not yet field validated,,Gaza strip,Gaza Governorate,CE20231007PSE,"34","32"
34.4376047000001,31.5248027490001,"210",Building (General / Default),2023/10/10 00:00:00,WorldView-2,Medium,Moderate Damage,Damaged Buildings,Not yet field validated,,Gaza strip,Gaza Governorate,CE20231007PSE,"34","32"
34.4373950950001,31.524873003,"211",Building (General / Default),2023/10/10 00:00:00,WorldView-2,Very High,Severe Damage,Damaged Buildings,Not yet field validated,,Gaza strip,Gaza Governorate,CE20231007PSE,"34","32"
34.4370142050001,31.5247915160001,"212",Building (General / Default),2023/10/10 00:00:00,WorldView-2,Medium,Moderate Damage,Damaged Buildings,Not yet field validated,,Gaza strip,Gaza Governorate,CE20231007PSE,"34","32"
34.4419539790001,31.5193773160001,"213",Building (General / Default),2023/10/10 00:00:00,WorldView-2,Very High,Severe Damage,Damaged Buildings,Not yet field validated,,Gaza strip,Gaza Governorate,CE20231007PSE,"34","32"
34.4418306350001,31.519223255,"214",Building (General / Default),2023/10/10 00:00:00,WorldView-2,Very High,Severe Damage,Damaged Buildings,Not yet field validated,,Gaza strip,Gaza Governorate,CE20231007PSE,"34","32"
34.4421919980001,31.5196640930001,"215",Building (General / Default),2023/10/10 00:00:00,WorldView-2,Medium,Moderate Damage,Damaged Buildings,Not yet field validated,,Gaza strip,Gaza Governorate,CE20231007PSE,"34","32"
34.4416761460001,31.5194858680001,"216",Building (General / Default),2023/10/10 00:00:00,WorldView-2,Medium,Moderate Damage,Damaged Buildings,Not yet field validated,,Gaza strip,Gaza Governorate,CE20231007PSE,"34","32"
34.441643684,31.5191378090001,"217",Building (General / Default),2023/10/10 00:00:00,WorldView-2,Medium,Moderate Damage,Damaged Buildings,Not yet field validated,,Gaza strip,Gaza Governorate,CE20231007PSE,"34","32"
34.4422481550001,31.5169385930001,"218",Building (General / Default),2023/10/10 00:00:00,WorldView-2,Very High,Destroyed,Damaged Buildings,Not yet field validated,,Gaza strip,Gaza Governorate,CE20231007PSE,"34","32"
34.4421712970001,31.516823318,"219",Building (General / Default),2023/10/10 00:00:00,WorldView-2,Very High,Severe Damage,Damaged Buildings,Not yet field validated,,Gaza strip,Gaza Governorate,CE20231007PSE,"34","32"
34.4425418690001,31.5169138400001,"220",Building (General / Default),2023/10/10 00:00:00,WorldView-2,Medium,Moderate Damage,Damaged Buildings,Not yet field validated,,Gaza strip,Gaza Governorate,CE20231007PSE,"34","32"
34.4421863050001,31.5164425610001,"221",Building (General / Default),2023/10/10 00:00:00,WorldView-2,Medium,Moderate Damage,Damaged Buildings,Not yet field validated,,Gaza strip,Gaza Governorate,CE20231007PSE,"34","32"
34.451616834,31.512853426,"222",Building (General / Default),2023/10/10 00:00:00,WorldView-2,Very High,Destroyed,Damaged Buildings,Not yet field validated,,Gaza strip,Gaza Governorate,CE20231007PSE,"34","32"
34.451403869,31.5129737710001,"223",Building (General / Default),2023/10/10 00:00:00,WorldView-2,Very High,Severe Damage,Damaged Buildings,Not yet field validated,,Gaza strip,Gaza Governorate,CE20231007PSE,"34","32"
34.4515393460001,31.5131026700001,"224",Building (General / Default),2023/10/10 00:00:00,WorldView-2,Medium,Moderate Damage,Damaged Buildings,Not yet field validated,,Gaza strip,Gaza Governorate,CE20231007PSE,"34","32"
34.4517840460001,31.5131463490001,"225",Building (General / Default),2023/10/10 00:00:00,WorldView-2,Medium,Moderate Damage,Damaged Buildings,Not yet field validated,,Gaza strip,Gaza Governorate,CE20231007PSE,"34","32"
34.4519151580001,31.5129929840001,"226",Building (General / Default),2023/10/10 00:00:00,WorldView-2,Medium,Moderate Damage,Damaged Buildings,Not yet field validated,,Gaza strip,Gaza Governorate,CE20231007PSE,"34","32"
34.4518725390001,31.512664697,"227",Building (General / Default),2023/10/10 00:00:00,WorldView-2,Medium,Moderate Damage,Damaged Buildings,Not yet field validated,,Gaza strip,Gaza Governorate,CE20231007PSE,"34","32"
34.4513656440001,31.5126597280001,"228",Building (General / Default),2023/10/10 00:00:00,WorldView-2,Medium,Moderate Damage,Damaged Buildings,Not yet field validated,,Gaza strip,Gaza Governorate,CE20231007PSE,"34","32"
34.4511867350001,31.5128243560001,"229",Building (General / Default),2023/10/10 00:00:00,WorldView-2,Medium,Moderate Damage,Damaged Buildings,Not yet field validated,,Gaza strip,Gaza Governorate,CE20231007PSE,"34","32"
34.453542541,31.5083348370001,"230",Building (General / Default),2023/10/10 00:00:00,WorldView-2,Very High,Destroyed,Damaged Buildings,Not yet field validated,,Gaza strip,Gaza Governorate,CE20231007PSE,"34","32"
34.4533917950001,31.508512657,"231",Building (General / Default),2023/10/10 00:00:00,WorldView-2,Medium,Moderate Damage,Damaged Buildings,Not yet field validated,,Gaza strip,Gaza Governorate,CE20231007PSE,"34","32"
34.4468913410001,31.515873044,"232",Building (General / Default),2023/10/10 00:00:00,WorldView-2,Very High,Destroyed,Damaged Buildings,Not yet field validated,,Gaza strip,Gaza Governorate,CE20231007PSE,"34","32"
34.4465407360001,31.5155893350001,"233",Building (General / Default),2023/10/10 00:00:00,WorldView-2,Very High,Severe Damage,Damaged Buildings,Not yet field validated,,Gaza strip,Gaza Governorate,CE20231007PSE,"34","32"
34.4467308090001,31.5161482390001,"234",Building (General / Default),2023/10/10 00:00:00,WorldView-2,Medium,Moderate Damage,Damaged Buildings,Not yet field validated,,Gaza strip,Gaza Governorate,CE20231007PSE,"34","32"
34.4471711080001,31.5162969230001,"235",Building (General / Default),2023/10/10 00:00:00,WorldView-2,Medium,Moderate Damage,Damaged Buildings,Not yet field validated,,Gaza strip,Gaza Governorate,CE20231007PSE,"34","32"
34.446896312,31.516466204,"236",Building (General / Default),2023/10/10 00:00:00,WorldView-2,Medium,Moderate Damage,Damaged Buildings,Not yet field validated,,Gaza strip,Gaza Governorate,CE20231007PSE,"34","32"
34.4467564330001,31.516592862,"237",Building (General / Default),2023/10/10 00:00:00,WorldView-2,Medium,Moderate Damage,Damaged Buildings,Not yet field validated,,Gaza strip,Gaza Governorate,CE20231007PSE,"34","32"
34.4473134580001,31.516195252,"238",Building (General / Default),2023/10/10 00:00:00,WorldView-2,Medium,Moderate Damage,Damaged Buildings,Not yet field validated,,Gaza strip,Gaza Governorate,CE20231007PSE,"34","32"
34.4474447470001,31.5160526100001,"239",Building (General / Default),2023/10/10 00:00:00,WorldView-2,Medium,Moderate Damage,Damaged Buildings,Not yet field validated,,Gaza strip,Gaza Governorate,CE20231007PSE,"34","32"
34.4463421090001,31.5156934280001,"240",Building (General / Default),2023/10/10 00:00:00,WorldView-2,Medium,Moderate Damage,Damaged Buildings,Not yet field validated,,Gaza strip,Gaza Governorate,CE20231007PSE,"34","32"
34.4464195770001,31.5158480030001,"241",Building (General / Default),2023/10/10 00:00:00,WorldView-2,Medium,Moderate Damage,Damaged Buildings,Not yet field validated,,Gaza strip,Gaza Governorate,CE20231007PSE,"34","32"
34.4470202350001,31.5155749770001,"242",Building (General / Default),2023/10/10 00:00:00,WorldView-2,Medium,Moderate Damage,Damaged Buildings,Not yet field validated,,Gaza strip,Gaza Governorate,CE20231007PSE,"34","32"
34.446868484,31.515337263,"243",Building (General / Default),2023/10/10 00:00:00,WorldView-2,Medium,Moderate Damage,Damaged Buildings,Not yet field validated,,Gaza strip,Gaza Governorate,CE20231007PSE,"34","32"
34.4471811820001,31.5158679780001,"244",Building (General / Default),2023/10/10 00:00:00,WorldView-2,Medium,Moderate Damage,Damaged Buildings,Not yet field validated,,Gaza strip,Gaza Governorate,CE20231007PSE,"34","32"
34.4473443290001,31.5157624980001,"245",Building (General / Default),2023/10/10 00:00:00,WorldView-2,Medium,Moderate Damage,Damaged Buildings,Not yet field validated,,Gaza strip,Gaza Governorate,CE20231007PSE,"34","32"
34.4475190590001,31.5147849300001,"246",Building (General / Default),2023/10/10 00:00:00,WorldView-2,Medium,Moderate Damage,Damaged Buildings,Not yet field validated,,Gaza strip,Gaza Governorate,CE20231007PSE,"34","32"
34.4474078900001,31.5150148980001,"247",Building (General / Default),2023/10/10 00:00:00,WorldView-2,Medium,Moderate Damage,Damaged Buildings,Not yet field validated,,Gaza strip,Gaza Governorate,CE20231007PSE,"34","32"
34.447156663,31.5150892120001,"248",Building (General / Default),2023/10/10 00:00:00,WorldView-2,Medium,Moderate Damage,Damaged Buildings,Not yet field validated,,Gaza strip,Gaza Governorate,CE20231007PSE,"34","32"
34.44728566,31.5152038950001,"249",Building (General / Default),2023/10/10 00:00:00,WorldView-2,Medium,Moderate Damage,Damaged Buildings,Not yet field validated,,Gaza strip,Gaza Governorate,CE20231007PSE,"34","32"
34.4477967340001,31.5146674330001,"250",Building (General / Default),2023/10/10 00:00:00,WorldView-2,Medium,Moderate Damage,Damaged Buildings,Not yet field validated,,Gaza strip,Gaza Governorate,CE20231007PSE,"34","32"
34.4479921880001,31.5143578910001,"251",Building (General / Default),2023/10/10 00:00:00,WorldView-2,Medium,Moderate Damage,Damaged Buildings,Not yet field validated,,Gaza strip,Gaza Governorate,CE20231007PSE,"34","32"
34.4482403630001,31.5142210720001,"252",Building (General / Default),2023/10/10 00:00:00,WorldView-2,Medium,Moderate Damage,Damaged Buildings,Not yet field validated,,Gaza strip,Gaza Governorate,CE20231007PSE,"34","32"
34.4483356730001,31.5140448870001,"253",Building (General / Default),2023/10/10 00:00:00,WorldView-2,Medium,Moderate Damage,Damaged Buildings,Not yet field validated,,Gaza strip,Gaza Governorate,CE20231007PSE,"34","32"
34.4463134010001,31.5147451780001,"254",Building (General / Default),2023/10/10 00:00:00,WorldView-2,Very High,Destroyed,Damaged Buildings,Not yet field validated,,Gaza strip,Gaza Governorate,CE20231007PSE,"34","32"
34.4465976540001,31.5150004060001,"255",Building (General / Default),2023/10/10 00:00:00,WorldView-2,Very High,Destroyed,Damaged Buildings,Not yet field validated,,Gaza strip,Gaza Governorate,CE20231007PSE,"34","32"
34.4466092340001,31.5151455060001,"256",Building (General / Default),2023/10/10 00:00:00,WorldView-2,Very High,Destroyed,Damaged Buildings,Not yet field validated,,Gaza strip,Gaza Governorate,CE20231007PSE,"34","32"
34.4464830030001,31.515096617,"257",Building (General / Default),2023/10/10 00:00:00,WorldView-2,Very High,Destroyed,Damaged Buildings,Not yet field validated,,Gaza strip,Gaza Governorate,CE20231007PSE,"34","32"
34.4464159980001,31.5152528980001,"258",Building (General / Default),2023/10/10 00:00:00,WorldView-2,Very High,Destroyed,Damaged Buildings,Not yet field validated,,Gaza strip,Gaza Governorate,CE20231007PSE,"34","32"
34.4462735130001,31.5153620020001,"259",Building (General / Default),2023/10/10 00:00:00,WorldView-2,Very High,Destroyed,Damaged Buildings,Not yet field validated,,Gaza strip,Gaza Governorate,CE20231007PSE,"34","32"
34.446174543,31.5154363080001,"260",Building (General / Default),2023/10/10 00:00:00,WorldView-2,Very High,Destroyed,Damaged Buildings,Not yet field validated,,Gaza strip,Gaza Governorate,CE20231007PSE,"34","32"
34.446352769,31.515047773,"261",Building (General / Default),2023/10/10 00:00:00,WorldView-2,Very High,Severe Damage,Damaged Buildings,Not yet field validated,,Gaza strip,Gaza Governorate,CE20231007PSE,"34","32"
34.4465030850001,31.5149271450001,"262",Building (General / Default),2023/10/10 00:00:00,WorldView-2,Very High,Severe Damage,Damaged Buildings,Not yet field validated,,Gaza strip,Gaza Governorate,CE20231007PSE,"34","32"
34.4464159600001,31.514817205,"263",Building (General / Default),2023/10/10 00:00:00,WorldView-2,Very High,Severe Damage,Damaged Buildings,Not yet field validated,,Gaza strip,Gaza Governorate,CE20231007PSE,"34","32"
34.4461485780001,31.5152239020001,"264",Building (General / Default),2023/10/10 00:00:00,WorldView-2,Very High,Severe Damage,Damaged Buildings,Not yet field validated,,Gaza strip,Gaza Governorate,CE20231007PSE,"34","32"
34.4461003960001,31.5149557120001,"265",Building (General / Default),2023/10/10 00:00:00,WorldView-2,Very High,Severe Damage,Damaged Buildings,Not yet field validated,,Gaza strip,Gaza Governorate,CE20231007PSE,"34","32"
34.4461939650001,31.5150507120001,"266",Building (General / Default),2023/10/10 00:00:00,WorldView-2,Very High,Destroyed,Damaged Buildings,Not yet field validated,,Gaza strip,Gaza Governorate,CE20231007PSE,"34","32"
34.4462606650001,31.515134581,"267",Building (General / Default),2023/10/10 00:00:00,WorldView-2,Very High,Destroyed,Damaged Buildings,Not yet field validated,,Gaza strip,Gaza Governorate,CE20231007PSE,"34","32"
34.446064633,31.515147089,"268",Building (General / Default),2023/10/10 00:00:00,WorldView-2,Very High,Severe Damage,Damaged Buildings,Not yet field validated,,Gaza strip,Gaza Governorate,CE20231007PSE,"34","32"
34.445971134,31.5150566620001,"269",Building (General / Default),2023/10/10 00:00:00,WorldView-2,Very High,Destroyed,Damaged Buildings,Not yet field validated,,Gaza strip,Gaza Governorate,CE20231007PSE,"34","32"
34.4460579500001,31.5153198410001,"270",Building (General / Default),2023/10/10 00:00:00,WorldView-2,Very High,Destroyed,Damaged Buildings,Not yet field validated,,Gaza strip,Gaza Governorate,CE20231007PSE,"34","32"
34.446084548,31.5155734080001,"271",Building (General / Default),2023/10/10 00:00:00,WorldView-2,Medium,Moderate Damage,Damaged Buildings,Not yet field validated,,Gaza strip,Gaza Governorate,CE20231007PSE,"34","32"
34.4460019730001,31.5154988670001,"272",Building (General / Default),2023/10/10 00:00:00,WorldView-2,Medium,Moderate Damage,Damaged Buildings,Not yet field validated,,Gaza strip,Gaza Governorate,CE20231007PSE,"34","32"
34.4459059280001,31.5154164740001,"273",Building (General / Default),2023/10/10 00:00:00,WorldView-2,Medium,Moderate Damage,Damaged Buildings,Not yet field validated,,Gaza strip,Gaza Governorate,CE20231007PSE,"34","32"
34.445824406,31.5153236240001,"274",Building (General / Default),2023/10/10 00:00:00,WorldView-2,Medium,Moderate Damage,Damaged Buildings,Not yet field validated,,Gaza strip,Gaza Governorate,CE20231007PSE,"34","32"
34.445941921,31.5152399600001,"275",Building (General / Default),2023/10/10 00:00:00,WorldView-2,Medium,Moderate Damage,Damaged Buildings,Not yet field validated,,Gaza strip,Gaza Governorate,CE20231007PSE,"34","32"
34.445791209,31.5151616150001,"276",Building (General / Default),2023/10/10 00:00:00,WorldView-2,Medium,Moderate Damage,Damaged Buildings,Not yet field validated,,Gaza strip,Gaza Governorate,CE20231007PSE,"34","32"
34.4462162940001,31.5148537690001,"277",Building (General / Default),2023/10/10 00:00:00,WorldView-2,Very High,Destroyed,Damaged Buildings,Not yet field validated,,Gaza strip,Gaza Governorate,CE20231007PSE,"34","32"
34.4462053970001,31.5146663500001,"278",Building (General / Default),2023/10/10 00:00:00,WorldView-2,Very High,Severe Damage,Damaged Buildings,Not yet field validated,,Gaza strip,Gaza Governorate,CE20231007PSE,"34","32"
34.4460778580001,31.5147924390001,"279",Building (General / Default),2023/10/10 00:00:00,WorldView-2,Very High,Destroyed,Damaged Buildings,Not yet field validated,,Gaza strip,Gaza Governorate,CE20231007PSE,"34","32"
34.445845235,31.5149425870001,"280",Building (General / Default),2023/10/10 00:00:00,WorldView-2,Very High,Severe Damage,Damaged Buildings,Not yet field validated,,Gaza strip,Gaza Governorate,CE20231007PSE,"34","32"
34.4459560760001,31.5148589980001,"281",Building (General / Default),2023/10/10 00:00:00,WorldView-2,Very High,Destroyed,Damaged Buildings,Not yet field validated,,Gaza strip,Gaza Governorate,CE20231007PSE,"34","32"
34.4468849690001,31.5143281800001,"282",Building (General / Default),2023/10/10 00:00:00,WorldView-2,Very High,Destroyed,Damaged Buildings,Not yet field validated,,Gaza strip,Gaza Governorate,CE20231007PSE,"34","32"
34.446697972,31.5144938220001,"283",Building (General / Default),2023/10/10 00:00:00,WorldView-2,Very High,Destroyed,Damaged Buildings,Not yet field validated,,Gaza strip,Gaza Governorate,CE20231007PSE,"34","32"
34.447329901,31.5145289850001,"284",Building (General / Default),2023/10/10 00:00:00,WorldView-2,Very High,Destroyed,Damaged Buildings,Not yet field validated,,Gaza strip,Gaza Governorate,CE20231007PSE,"34","32"
34.4471913900001,31.5143761730001,"285",Building (General / Default),2023/10/10 00:00:00,WorldView-2,Very High,Destroyed,Damaged Buildings,Not yet field validated,,Gaza strip,Gaza Governorate,CE20231007PSE,"34","32"
34.4470771110001,31.514496395,"286",Building (General / Default),2023/10/10 00:00:00,WorldView-2,Very High,Severe Damage,Damaged Buildings,Not yet field validated,,Gaza strip,Gaza Governorate,CE20231007PSE,"34","32"
34.4469068260001,31.5148802670001,"287",Building (General / Default),2023/10/10 00:00:00,WorldView-2,Very High,Severe Damage,Damaged Buildings,Not yet field validated,,Gaza strip,Gaza Governorate,CE20231007PSE,"34","32"
34.4467703010001,31.514769743,"288",Building (General / Default),2023/10/10 00:00:00,WorldView-2,Very High,Destroyed,Damaged Buildings,Not yet field validated,,Gaza strip,Gaza Governorate,CE20231007PSE,"34","32"
34.446984414,31.514631239,"289",Building (General / Default),2023/10/10 00:00:00,WorldView-2,Very High,Destroyed,Damaged Buildings,Not yet field validated,,Gaza strip,Gaza Governorate,CE20231007PSE,"34","32"
34.4476884940001,31.514237897,"290",Building (General / Default),2023/10/10 00:00:00,WorldView-2,Very High,Destroyed,Damaged Buildings,Not yet field validated,,Gaza strip,Gaza Governorate,CE20231007PSE,"34","32"
34.4474767070001,31.5141808290001,"291",Building (General / Default),2023/10/10 00:00:00,WorldView-2,Very High,Destroyed,Damaged Buildings,Not yet field validated,,Gaza strip,Gaza Governorate,CE20231007PSE,"34","32"
34.447296242,31.5139907540001,"292",Building (General / Default),2023/10/10 00:00:00,WorldView-2,Very High,Destroyed,Damaged Buildings,Not yet field validated,,Gaza strip,Gaza Governorate,CE20231007PSE,"34","32"
34.4476484620001,31.5140656740001,"293",Building (General / Default),2023/10/10 00:00:00,WorldView-2,Very High,Destroyed,Damaged Buildings,Not yet field validated,,Gaza strip,Gaza Governorate,CE20231007PSE,"34","32"
34.4477644280001,31.5139683030001,"294",Building (General / Default),2023/10/10 00:00:00,WorldView-2,Very High,Destroyed,Damaged Buildings,Not yet field validated,,Gaza strip,Gaza Governorate,CE20231007PSE,"34","32"
34.4475774480001,31.5137885940001,"295",Building (General / Default),2023/10/10 00:00:00,WorldView-2,Very High,Destroyed,Damaged Buildings,Not yet field validated,,Gaza strip,Gaza Governorate,CE20231007PSE,"34","32"
34.4479350060001,31.5138634530001,"296",Building (General / Default),2023/10/10 00:00:00,WorldView-2,Very High,Destroyed,Damaged Buildings,Not yet field validated,,Gaza strip,Gaza Governorate,CE20231007PSE,"34","32"
34.44812347,31.5136200300001,"297",Building (General / Default),2023/10/10 00:00:00,WorldView-2,Medium,Moderate Damage,Damaged Buildings,Not yet field validated,,Gaza strip,Gaza Governorate,CE20231007PSE,"34","32"
34.4482136880001,31.5137573790001,"298",Building (General / Default),2023/10/10 00:00:00,WorldView-2,Medium,Moderate Damage,Damaged Buildings,Not yet field validated,,Gaza strip,Gaza Governorate,CE20231007PSE,"34","32"
34.444549625,31.5143705820001,"299",Building (General / Default),2023/10/10 00:00:00,WorldView-2,Very High,Destroyed,Damaged Buildings,Not yet field validated,,Gaza strip,Gaza Governorate,CE20231007PSE,"34","32"
34.4448529210001,31.5144757940001,"300",Building (General / Default),2023/10/10 00:00:00,WorldView-2,Medium,Moderate Damage,Damaged Buildings,Not yet field validated,,Gaza strip,Gaza Governorate,CE20231007PSE,"34","32"
34.4447143610001,31.514319549,"301",Building (General / Default),2023/10/10 00:00:00,WorldView-2,Medium,Moderate Damage,Damaged Buildings,Not yet field validated,,Gaza strip,Gaza Governorate,CE20231007PSE,"34","32"
34.4453974840001,31.5144719300001,"302",Building (General / Default),2023/10/10 00:00:00,WorldView-2,Very High,Destroyed,Damaged Buildings,Not yet field validated,,Gaza strip,Gaza Governorate,CE20231007PSE,"34","32"
34.445221615,31.514580267,"303",Building (General / Default),2023/10/10 00:00:00,WorldView-2,Very High,Severe Damage,Damaged Buildings,Not yet field validated,,Gaza strip,Gaza Governorate,CE20231007PSE,"34","32"
34.445517592,31.5147301580001,"304",Building (General / Default),2023/10/10 00:00:00,WorldView-2,Medium,Moderate Damage,Damaged Buildings,Not yet field validated,,Gaza strip,Gaza Governorate,CE20231007PSE,"34","32"
34.4456739160001,31.514652917,"305",Building (General / Default),2023/10/10 00:00:00,WorldView-2,Medium,Moderate Damage,Damaged Buildings,Not yet field validated,,Gaza strip,Gaza Governorate,CE20231007PSE,"34","32"
34.4450138940001,31.514787309,"306",Building (General / Default),2023/10/10 00:00:00,WorldView-2,Medium,Moderate Damage,Damaged Buildings,Not yet field validated,,Gaza strip,Gaza Governorate,CE20231007PSE,"34","32"
34.4452621380001,31.5148714140001,"307",Building (General / Default),2023/10/10 00:00:00,WorldView-2,Medium,Moderate Damage,Damaged Buildings,Not yet field validated,,Gaza strip,Gaza Governorate,CE20231007PSE,"34","32"
34.4442344480001,31.5145397410001,"308",Building (General / Default),2023/10/10 00:00:00,WorldView-2,Medium,Moderate Damage,Damaged Buildings,Not yet field validated,,Gaza strip,Gaza Governorate,CE20231007PSE,"34","32"
34.4440839750001,31.5146557950001,"309",Building (General / Default),2023/10/10 00:00:00,WorldView-2,Medium,Moderate Damage,Damaged Buildings,Not yet field validated,,Gaza strip,Gaza Governorate,CE20231007PSE,"34","32"
34.4468034600001,31.514149564,"310",Building (General / Default),2023/10/10 00:00:00,WorldView-2,Very High,Destroyed,Damaged Buildings,Not yet field validated,,Gaza strip,Gaza Governorate,CE20231007PSE,"34","32"
34.446516983,31.5143563560001,"311",Building (General / Default),2023/10/10 00:00:00,WorldView-2,Very High,Destroyed,Damaged Buildings,Not yet field validated,,Gaza strip,Gaza Governorate,CE20231007PSE,"34","32"
34.4466753980001,31.5139817670001,"312",Building (General / Default),2023/10/10 00:00:00,WorldView-2,Very High,Destroyed,Damaged Buildings,Not yet field validated,,Gaza strip,Gaza Governorate,CE20231007PSE,"34","32"
34.4464969860001,31.51409814,"313",Building (General / Default),2023/10/10 00:00:00,WorldView-2,Very High,Destroyed,Damaged Buildings,Not yet field validated,,Gaza strip,Gaza Governorate,CE20231007PSE,"34","32"
34.4462697740001,31.5142528010001,"314",Building (General / Default),2023/10/10 00:00:00,WorldView-2,Very High,Destroyed,Damaged Buildings,Not yet field validated,,Gaza strip,Gaza Governorate,CE20231007PSE,"34","32"
34.446047519,31.514122661,"315",Building (General / Default),2023/10/10 00:00:00,WorldView-2,Very High,Destroyed,Damaged Buildings,Not yet field validated,,Gaza strip,Gaza Governorate,CE20231007PSE,"34","32"
34.4462179590001,31.514008667,"316",Building (General / Default),2023/10/10 00:00:00,WorldView-2,Very High,Destroyed,Damaged Buildings,Not yet field validated,,Gaza strip,Gaza Governorate,CE20231007PSE,"34","32"
34.4464694050001,31.513867454,"317",Building (General / Default),2023/10/10 00:00:00,WorldView-2,Very High,Severe Damage,Damaged Buildings,Not yet field validated,,Gaza strip,Gaza Governorate,CE20231007PSE,"34","32"
34.445534964,31.51438461,"318",Building (General / Default),2023/10/10 00:00:00,WorldView-2,Very High,Severe Damage,Damaged Buildings,Not yet field validated,,Gaza strip,Gaza Governorate,CE20231007PSE,"34","32"
34.4456965030001,31.5142993050001,"319",Building (General / Default),2023/10/10 00:00:00,WorldView-2,Very High,Severe Damage,Damaged Buildings,Not yet field validated,,Gaza strip,Gaza Governorate,CE20231007PSE,"34","32"
34.445923586,31.5143962270001,"320",Building (General / Default),2023/10/10 00:00:00,WorldView-2,Very High,Destroyed,Damaged Buildings,Not yet field validated,,Gaza strip,Gaza Governorate,CE20231007PSE,"34","32"
34.4459005180001,31.5145451500001,"321",Building (General / Default),2023/10/10 00:00:00,WorldView-2,Very High,Severe Damage,Damaged Buildings,Not yet field validated,,Gaza strip,Gaza Governorate,CE20231007PSE,"34","32"
34.445158388,31.514266648,"322",Building (General / Default),2023/10/10 00:00:00,WorldView-2,Medium,Moderate Damage,Damaged Buildings,Not yet field validated,,Gaza strip,Gaza Governorate,CE20231007PSE,"34","32"
34.4449799230001,31.5141900440001,"323",Building (General / Default),2023/10/10 00:00:00,WorldView-2,Medium,Moderate Damage,Damaged Buildings,Not yet field validated,,Gaza strip,Gaza Governorate,CE20231007PSE,"34","32"
34.445273952,31.514050926,"324",Building (General / Default),2023/10/10 00:00:00,WorldView-2,Medium,Moderate Damage,Damaged Buildings,Not yet field validated,,Gaza strip,Gaza Governorate,CE20231007PSE,"34","32"
34.4458773140001,31.513683175,"325",Building (General / Default),2023/10/10 00:00:00,WorldView-2,Very High,Severe Damage,Damaged Buildings,Not yet field validated,,Gaza strip,Gaza Governorate,CE20231007PSE,"34","32"
34.4460626010001,31.5135256290001,"326",Building (General / Default),2023/10/10 00:00:00,WorldView-2,Very High,Destroyed,Damaged Buildings,Not yet field validated,,Gaza strip,Gaza Governorate,CE20231007PSE,"34","32"
34.446208788,31.5134024740001,"327",Building (General / Default),2023/10/10 00:00:00,WorldView-2,Very High,Destroyed,Damaged Buildings,Not yet field validated,,Gaza strip,Gaza Governorate,CE20231007PSE,"34","32"
34.4463320550001,31.5136869680001,"328",Building (General / Default),2023/10/10 00:00:00,WorldView-2,Medium,Moderate Damage,Damaged Buildings,Not yet field validated,,Gaza strip,Gaza Governorate,CE20231007PSE,"34","32"
34.446497664,31.5134706800001,"329",Building (General / Default),2023/10/10 00:00:00,WorldView-2,Medium,Moderate Damage,Damaged Buildings,Not yet field validated,,Gaza strip,Gaza Governorate,CE20231007PSE,"34","32"
34.4470843720001,31.5137820940001,"330",Building (General / Default),2023/10/10 00:00:00,WorldView-2,Medium,Moderate Damage,Damaged Buildings,Not yet field validated,,Gaza strip,Gaza Governorate,CE20231007PSE,"34","32"
34.4472021270001,31.5135734940001,"331",Building (General / Default),2023/10/10 00:00:00,WorldView-2,Medium,Moderate Damage,Damaged Buildings,Not yet field validated,,Gaza strip,Gaza Governorate,CE20231007PSE,"34","32"
34.446901654,31.513700182,"332",Building (General / Default),2023/10/10 00:00:00,WorldView-2,Medium,Moderate Damage,Damaged Buildings,Not yet field validated,,Gaza strip,Gaza Governorate,CE20231007PSE,"34","32"
34.4450919920001,31.51279865,"333",Building (General / Default),2023/10/10 00:00:00,WorldView-2,Very High,Severe Damage,Damaged Buildings,Not yet field validated,,Gaza strip,Gaza Governorate,CE20231007PSE,"34","32"
34.4448759250001,31.513124501,"334",Building (General / Default),2023/10/10 00:00:00,WorldView-2,Medium,Moderate Damage,Damaged Buildings,Not yet field validated,,Gaza strip,Gaza Governorate,CE20231007PSE,"34","32"
34.4449023430001,31.5129437360001,"335",Building (General / Default),2023/10/10 00:00:00,WorldView-2,Medium,Moderate Damage,Damaged Buildings,Not yet field validated,,Gaza strip,Gaza Governorate,CE20231007PSE,"34","32"
34.4455357070001,31.5130348540001,"336",Building (General / Default),2023/10/10 00:00:00,WorldView-2,Medium,Moderate Damage,Damaged Buildings,Not yet field validated,,Gaza strip,Gaza Governorate,CE20231007PSE,"34","32"
34.445594381,31.5133236520001,"337",Building (General / Default),2023/10/10 00:00:00,WorldView-2,Medium,Moderate Damage,Damaged Buildings,Not yet field validated,,Gaza strip,Gaza Governorate,CE20231007PSE,"34","32"
34.4458909040001,31.5132113070001,"338",Building (General / Default),2023/10/10 00:00:00,WorldView-2,Medium,Moderate Damage,Damaged Buildings,Not yet field validated,,Gaza strip,Gaza Governorate,CE20231007PSE,"34","32"
34.4460189230001,31.5129918700001,"339",Building (General / Default),2023/10/10 00:00:00,WorldView-2,Medium,Moderate Damage,Damaged Buildings,Not yet field validated,,Gaza strip,Gaza Governorate,CE20231007PSE,"34","32"
34.4463511770001,31.5130327840001,"340",Building (General / Default),2023/10/10 00:00:00,WorldView-2,Medium,Moderate Damage,Damaged Buildings,Not yet field validated,,Gaza strip,Gaza Governorate,CE20231007PSE,"34","32"
34.4453566640001,31.513597932,"341",Building (General / Default),2023/10/10 00:00:00,WorldView-2,Medium,Moderate Damage,Damaged Buildings,Not yet field validated,,Gaza strip,Gaza Governorate,CE20231007PSE,"34","32"
34.4452635570001,31.5133756340001,"342",Building (General / Default),2023/10/10 00:00:00,WorldView-2,Medium,Moderate Damage,Damaged Buildings,Not yet field validated,,Gaza strip,Gaza Governorate,CE20231007PSE,"34","32"
34.4450978300001,31.513448978,"343",Building (General / Default),2023/10/10 00:00:00,WorldView-2,Medium,Moderate Damage,Damaged Buildings,Not yet field validated,,Gaza strip,Gaza Governorate,CE20231007PSE,"34","32"
34.444933043,31.5137188590001,"344",Building (General / Default),2023/10/10 00:00:00,WorldView-2,Very High,Destroyed,Damaged Buildings,Not yet field validated,,Gaza strip,Gaza Governorate,CE20231007PSE,"34","32"
34.4448669210001,31.5138947120001,"345",Building (General / Default),2023/10/10 00:00:00,WorldView-2,Very High,Destroyed,Damaged Buildings,Not yet field validated,,Gaza strip,Gaza Governorate,CE20231007PSE,"34","32"
34.444999888,31.5138610480001,"346",Building (General / Default),2023/10/10 00:00:00,WorldView-2,Very High,Severe Damage,Damaged Buildings,Not yet field validated,,Gaza strip,Gaza Governorate,CE20231007PSE,"34","32"
34.444758048,31.5140031500001,"347",Building (General / Default),2023/10/10 00:00:00,WorldView-2,Very High,Severe Damage,Damaged Buildings,Not yet field validated,,Gaza strip,Gaza Governorate,CE20231007PSE,"34","32"
34.4446322640001,31.5138258910001,"348",Building (General / Default),2023/10/10 00:00:00,WorldView-2,Medium,Moderate Damage,Damaged Buildings,Not yet field validated,,Gaza strip,Gaza Governorate,CE20231007PSE,"34","32"
34.4445567720001,31.5135283480001,"349",Building (General / Default),2023/10/10 00:00:00,WorldView-2,Very High,Destroyed,Damaged Buildings,Not yet field validated,,Gaza strip,Gaza Governorate,CE20231007PSE,"34","32"
34.4447860480001,31.5135186110001,"350",Building (General / Default),2023/10/10 00:00:00,WorldView-2,Very High,Destroyed,Damaged Buildings,Not yet field validated,,Gaza strip,Gaza Governorate,CE20231007PSE,"34","32"
34.4445871140001,31.513331457,"351",Building (General / Default),2023/10/10 00:00:00,WorldView-2,Very High,Destroyed,Damaged Buildings,Not yet field validated,,Gaza strip,Gaza Governorate,CE20231007PSE,"34","32"
34.4447030430001,31.5134105540001,"352",Building (General / Default),2023/10/10 00:00:00,WorldView-2,Very High,Destroyed,Damaged Buildings,Not yet field validated,,Gaza strip,Gaza Governorate,CE20231007PSE,"34","32"
34.4444914320001,31.5132128220001,"353",Building (General / Default),2023/10/10 00:00:00,WorldView-2,Medium,Moderate Damage,Damaged Buildings,Not yet field validated,,Gaza strip,Gaza Governorate,CE20231007PSE,"34","32"
34.444312757,31.5133935200001,"354",Building (General / Default),2023/10/10 00:00:00,WorldView-2,Medium,Moderate Damage,Damaged Buildings,Not yet field validated,,Gaza strip,Gaza Governorate,CE20231007PSE,"34","32"
34.4443635260001,31.513710996,"355",Building (General / Default),2023/10/10 00:00:00,WorldView-2,Medium,Moderate Damage,Damaged Buildings,Not yet field validated,,Gaza strip,Gaza Governorate,CE20231007PSE,"34","32"
34.4439217350001,31.5135998420001,"356",Building (General / Default),2023/10/10 00:00:00,WorldView-2,Very High,Destroyed,Damaged Buildings,Not yet field validated,,Gaza strip,Gaza Governorate,CE20231007PSE,"34","32"
34.44411619,31.5134957990001,"357",Building (General / Default),2023/10/10 00:00:00,WorldView-2,Very High,Severe Damage,Damaged Buildings,Not yet field validated,,Gaza strip,Gaza Governorate,CE20231007PSE,"34","32"
34.444092271,31.5138391350001,"358",Building (General / Default),2023/10/10 00:00:00,WorldView-2,Medium,Moderate Damage,Damaged Buildings,Not yet field validated,,Gaza strip,Gaza Governorate,CE20231007PSE,"34","32"
34.4442494990001,31.51402676,"359",Building (General / Default),2023/10/10 00:00:00,WorldView-2,Very High,Destroyed,Damaged Buildings,Not yet field validated,,Gaza strip,Gaza Governorate,CE20231007PSE,"34","32"
34.4444222560001,31.5141391650001,"360",Building (General / Default),2023/10/10 00:00:00,WorldView-2,Very High,Destroyed,Damaged Buildings,Not yet field validated,,Gaza strip,Gaza Governorate,CE20231007PSE,"34","32"
34.444048271,31.5143685240001,"361",Building (General / Default),2023/10/10 00:00:00,WorldView-2,Very High,Destroyed,Damaged Buildings,Not yet field validated,,Gaza strip,Gaza Governorate,CE20231007PSE,"34","32"
34.4439209240001,31.5142252310001,"362",Building (General / Default),2023/10/10 00:00:00,WorldView-2,Very High,Severe Damage,Damaged Buildings,Not yet field validated,,Gaza strip,Gaza Governorate,CE20231007PSE,"34","32"
34.4437621330001,31.514071571,"363",Building (General / Default),2023/10/10 00:00:00,WorldView-2,Very High,Severe Damage,Damaged Buildings,Not yet field validated,,Gaza strip,Gaza Governorate,CE20231007PSE,"34","32"
34.4435018790001,31.514237107,"364",Building (General / Default),2023/10/10 00:00:00,WorldView-2,Medium,Moderate Damage,Damaged Buildings,Not yet field validated,,Gaza strip,Gaza Governorate,CE20231007PSE,"34","32"
34.4438109010001,31.5145302280001,"365",Building (General / Default),2023/10/10 00:00:00,WorldView-2,Medium,Moderate Damage,Damaged Buildings,Not yet field validated,,Gaza strip,Gaza Governorate,CE20231007PSE,"34","32"
34.4437063280001,31.5143759570001,"366",Building (General / Default),2023/10/10 00:00:00,WorldView-2,Medium,Moderate Damage,Damaged Buildings,Not yet field validated,,Gaza strip,Gaza Governorate,CE20231007PSE,"34","32"
34.4435558700001,31.5136790170001,"367",Building (General / Default),2023/10/10 00:00:00,WorldView-2,Medium,Moderate Damage,Damaged Buildings,Not yet field validated,,Gaza strip,Gaza Governorate,CE20231007PSE,"34","32"
34.4436583830001,31.5138350980001,"368",Building (General / Default),2023/10/10 00:00:00,WorldView-2,Medium,Moderate Damage,Damaged Buildings,Not yet field validated,,Gaza strip,Gaza Governorate,CE20231007PSE,"34","32"
34.4433182000001,31.5139568650001,"369",Building (General / Default),2023/10/10 00:00:00,WorldView-2,Medium,Moderate Damage,Damaged Buildings,Not yet field validated,,Gaza strip,Gaza Governorate,CE20231007PSE,"34","32"
34.4475967720001,31.5131674600001,"370",Building (General / Default),2023/10/10 00:00:00,WorldView-2,Medium,Moderate Damage,Damaged Buildings,Not yet field validated,,Gaza strip,Gaza Governorate,CE20231007PSE,"34","32"
34.439520847,31.5098926370001,"371",Building (General / Default),2023/10/10 00:00:00,WorldView-2,Very High,Severe Damage,Damaged Buildings,Not yet field validated,,Gaza strip,Gaza Governorate,CE20231007PSE,"34","32"
34.4392304310001,31.5100801680001,"372",Building (General / Default),2023/10/10 00:00:00,WorldView-2,Very High,Severe Damage,Damaged Buildings,Not yet field validated,,Gaza strip,Gaza Governorate,CE20231007PSE,"34","32"
34.439041751,31.5102079250001,"373",Building (General / Default),2023/10/10 00:00:00,WorldView-2,Medium,Moderate Damage,Damaged Buildings,Not yet field validated,,Gaza strip,Gaza Governorate,CE20231007PSE,"34","32"
34.439525652,31.5105249430001,"374",Building (General / Default),2023/10/10 00:00:00,WorldView-2,Medium,Moderate Damage,Damaged Buildings,Not yet field validated,,Gaza strip,Gaza Governorate,CE20231007PSE,"34","32"
34.4389716060001,31.5097773690001,"375",Building (General / Default),2023/10/10 00:00:00,WorldView-2,Medium,Moderate Damage,Damaged Buildings,Not yet field validated,,Gaza strip,Gaza Governorate,CE20231007PSE,"34","32"
34.431848286,31.5204119350001,"376",Building (General / Default),2023/10/10 00:00:00,WorldView-2,Medium,Moderate Damage,Damaged Buildings,Not yet field validated,,Gaza strip,Gaza Governorate,CE20231007PSE,"34","32"
34.4323300560001,31.521022987,"377",Building (General / Default),2023/10/10 00:00:00,WorldView-2,Very High,Severe Damage,Damaged Buildings,Not yet field validated,,Gaza strip,Gaza Governorate,CE20231007PSE,"34","32"
34.435454479,31.517463498,"378",Building (General / Default),2023/10/10 00:00:00,WorldView-2,Very High,Severe Damage,Damaged Buildings,Not yet field validated,,Gaza strip,Gaza Governorate,CE20231007PSE,"34","32"
34.428003624,31.517559792,"379",Building (General / Default),2023/10/10 00:00:00,WorldView-2,Very High,Destroyed,Damaged Buildings,Not yet field validated,,Gaza strip,Gaza Governorate,CE20231007PSE,"34","32"
34.42820434,31.5175784900001,"380",Building (General / Default),2023/10/10 00:00:00,WorldView-2,Very High,Destroyed,Damaged Buildings,Not yet field validated,,Gaza strip,Gaza Governorate,CE20231007PSE,"34","32"
34.4278269010001,31.5175115110001,"381",Building (General / Default),2023/10/10 00:00:00,WorldView-2,Medium,Moderate Damage,Damaged Buildings,Not yet field validated,,Gaza strip,Gaza Governorate,CE20231007PSE,"34","32"
34.427902621,31.5173473410001,"382",Building (General / Default),2023/10/10 00:00:00,WorldView-2,Medium,Moderate Damage,Damaged Buildings,Not yet field validated,,Gaza strip,Gaza Governorate,CE20231007PSE,"34","32"
34.4288923440001,31.5171729640001,"383",Building (General / Default),2023/10/10 00:00:00,WorldView-2,Very High,Severe Damage,Damaged Buildings,Not yet field validated,,Gaza strip,Gaza Governorate,CE20231007PSE,"34","32"
34.429226154,31.5169430930001,"384",Building (General / Default),2023/10/10 00:00:00,WorldView-2,Very High,Severe Damage,Damaged Buildings,Not yet field validated,,Gaza strip,Gaza Governorate,CE20231007PSE,"34","32"
34.4395663060001,31.505876797,"385",Building (General / Default),2023/10/10 00:00:00,WorldView-2,Very High,Destroyed,Damaged Buildings,Not yet field validated,,Gaza strip,Gaza Governorate,CE20231007PSE,"34","32"
34.4393674410001,31.5059064800001,"386",Building (General / Default),2023/10/10 00:00:00,WorldView-2,Medium,Moderate Damage,Damaged Buildings,Not yet field validated,,Gaza strip,Gaza Governorate,CE20231007PSE,"34","32"
34.4392085220001,31.505755794,"387",Building (General / Default),2023/10/10 00:00:00,WorldView-2,Medium,Moderate Damage,Damaged Buildings,Not yet field validated,,Gaza strip,Gaza Governorate,CE20231007PSE,"34","32"
34.439504974,31.5055908360001,"388",Building (General / Default),2023/10/10 00:00:00,WorldView-2,Medium,Moderate Damage,Damaged Buildings,Not yet field validated,,Gaza strip,Gaza Governorate,CE20231007PSE,"34","32"
34.4416350000001,31.509634851,"389",Building (General / Default),2023/10/10 00:00:00,WorldView-2,Very High,Destroyed,Damaged Buildings,Not yet field validated,,Gaza strip,Gaza Governorate,CE20231007PSE,"34","32"
34.4417154500001,31.5093107000001,"390",Building (General / Default),2023/10/10 00:00:00,WorldView-2,Medium,Moderate Damage,Damaged Buildings,Not yet field validated,,Gaza strip,Gaza Governorate,CE20231007PSE,"34","32"
34.4418203870001,31.509422348,"391",Building (General / Default),2023/10/10 00:00:00,WorldView-2,Medium,Moderate Damage,Damaged Buildings,Not yet field validated,,Gaza strip,Gaza Governorate,CE20231007PSE,"34","32"
34.441549685,31.509178391,"392",Building (General / Default),2023/10/10 00:00:00,WorldView-2,Medium,Moderate Damage,Damaged Buildings,Not yet field validated,,Gaza strip,Gaza Governorate,CE20231007PSE,"34","32"
34.4419306630001,31.509649816,"393",Building (General / Default),2023/10/10 00:00:00,WorldView-2,Very High,Severe Damage,Damaged Buildings,Not yet field validated,,Gaza strip,Gaza Governorate,CE20231007PSE,"34","32"
34.4462376960001,31.5089638590001,"394",Building (General / Default),2023/10/10 00:00:00,WorldView-2,Very High,Severe Damage,Damaged Buildings,Not yet field validated,,Gaza strip,Gaza Governorate,CE20231007PSE,"34","32"
34.4462069450001,31.509278302,"395",Building (General / Default),2023/10/10 00:00:00,WorldView-2,Medium,Moderate Damage,Damaged Buildings,Not yet field validated,,Gaza strip,Gaza Governorate,CE20231007PSE,"34","32"
34.44640295,31.5090626240001,"396",Building (General / Default),2023/10/10 00:00:00,WorldView-2,Medium,Moderate Damage,Damaged Buildings,Not yet field validated,,Gaza strip,Gaza Governorate,CE20231007PSE,"34","32"
34.445848201,31.50909634,"397",Building (General / Default),2023/10/10 00:00:00,WorldView-2,Medium,Moderate Damage,Damaged Buildings,Not yet field validated,,Gaza strip,Gaza Governorate,CE20231007PSE,"34","32"
34.445998881,31.5089421630001,"398",Building (General / Default),2023/10/10 00:00:00,WorldView-2,Medium,Moderate Damage,Damaged Buildings,Not yet field validated,,Gaza strip,Gaza Governorate,CE20231007PSE,"34","32"
34.4459959520001,31.509445359,"399",Building (General / Default),2023/10/10 00:00:00,WorldView-2,Medium,Moderate Damage,Damaged Buildings,Not yet field validated,,Gaza strip,Gaza Governorate,CE20231007PSE,"34","32"
34.4584522090001,31.502229206,"400",Building (General / Default),2023/10/10 00:00:00,WorldView-2,Very High,Severe Damage,Damaged Buildings,Not yet field validated,,Gaza strip,Gaza Governorate,CE20231007PSE,"34","32"
34.458690968,31.5020191200001,"401",Building (General / Default),2023/10/10 00:00:00,WorldView-2,Medium,Moderate Damage,Damaged Buildings,Not yet field validated,,Gaza strip,Gaza Governorate,CE20231007PSE,"34","32"
34.458311241,31.5023192470001,"402",Building (General / Default),2023/10/10 00:00:00,WorldView-2,Medium,Moderate Damage,Damaged Buildings,Not yet field validated,,Gaza strip,Gaza Governorate,CE20231007PSE,"34","32"
34.459564045,31.4995695910001,"403",Building (General / Default),2023/10/10 00:00:00,WorldView-2,Very High,Destroyed,Damaged Buildings,Not yet field validated,,Gaza strip,Gaza Governorate,CE20231007PSE,"34","31"
34.4595076260001,31.4998324890001,"404",Building (General / Default),2023/10/10 00:00:00,WorldView-2,Medium,Moderate Damage,Damaged Buildings,Not yet field validated,,Gaza strip,Gaza Governorate,CE20231007PSE,"34","31"
34.4597833350001,31.499710415,"405",Building (General / Default),2023/10/10 00:00:00,WorldView-2,Medium,Moderate Damage,Damaged Buildings,Not yet field validated,,Gaza strip,Gaza Governorate,CE20231007PSE,"34","31"
34.4598113330001,31.499450891,"406",Building (General / Default),2023/10/10 00:00:00,WorldView-2,Medium,Moderate Damage,Damaged Buildings,Not yet field validated,,Gaza strip,Gaza Governorate,CE20231007PSE,"34","31"
34.4593472660001,31.4995903610001,"407",Building (General / Default),2023/10/10 00:00:00,WorldView-2,Medium,Moderate Damage,Damaged Buildings,Not yet field validated,,Gaza strip,Gaza Governorate,CE20231007PSE,"34","31"
34.459508821,31.4994512920001,"408",Building (General / Default),2023/10/10 00:00:00,WorldView-2,Medium,Moderate Damage,Damaged Buildings,Not yet field validated,,Gaza strip,Gaza Governorate,CE20231007PSE,"34","31"
34.4597220790001,31.4998910320001,"409",Building (General / Default),2023/10/10 00:00:00,WorldView-2,Medium,Moderate Damage,Damaged Buildings,Not yet field validated,,Gaza strip,Gaza Governorate,CE20231007PSE,"34","31"
34.4592029810001,31.4996956880001,"410",Building (General / Default),2023/10/10 00:00:00,WorldView-2,Medium,Moderate Damage,Damaged Buildings,Not yet field validated,,Gaza strip,Gaza Governorate,CE20231007PSE,"34","31"
34.4526329980001,31.503609726,"411",Building (General / Default),2023/10/10 00:00:00,WorldView-2,Very High,Destroyed,Damaged Buildings,Not yet field validated,,Gaza strip,Gaza Governorate,CE20231007PSE,"34","32"
34.4524739460001,31.5036816690001,"412",Building (General / Default),2023/10/10 00:00:00,WorldView-2,Very High,Severe Damage,Damaged Buildings,Not yet field validated,,Gaza strip,Gaza Governorate,CE20231007PSE,"34","32"
34.4528076300001,31.5038547500001,"413",Building (General / Default),2023/10/10 00:00:00,WorldView-2,Very High,Severe Damage,Damaged Buildings,Not yet field validated,,Gaza strip,Gaza Governorate,CE20231007PSE,"34","32"
34.4528064720001,31.5035498160001,"414",Building (General / Default),2023/10/10 00:00:00,WorldView-2,Medium,Moderate Damage,Damaged Buildings,Not yet field validated,,Gaza strip,Gaza Governorate,CE20231007PSE,"34","32"
34.4527014820001,31.5034351290001,"415",Building (General / Default),2023/10/10 00:00:00,WorldView-2,Medium,Moderate Damage,Damaged Buildings,Not yet field validated,,Gaza strip,Gaza Governorate,CE20231007PSE,"34","32"
34.4529693440001,31.5037248360001,"416",Building (General / Default),2023/10/10 00:00:00,WorldView-2,Medium,Moderate Damage,Damaged Buildings,Not yet field validated,,Gaza strip,Gaza Governorate,CE20231007PSE,"34","32"
34.452649191,31.5039663300001,"417",Building (General / Default),2023/10/10 00:00:00,WorldView-2,Medium,Moderate Damage,Damaged Buildings,Not yet field validated,,Gaza strip,Gaza Governorate,CE20231007PSE,"34","32"
34.4524633400001,31.5034561290001,"418",Building (General / Default),2023/10/10 00:00:00,WorldView-2,Medium,Moderate Damage,Damaged Buildings,Not yet field validated,,Gaza strip,Gaza Governorate,CE20231007PSE,"34","32"
34.447983342,31.5037539150001,"419",Building (General / Default),2023/10/10 00:00:00,WorldView-2,Very High,Destroyed,Damaged Buildings,Not yet field validated,,Gaza strip,Gaza Governorate,CE20231007PSE,"34","32"
34.4478068220001,31.5038473970001,"420",Building (General / Default),2023/10/10 00:00:00,WorldView-2,Very High,Severe Damage,Damaged Buildings,Not yet field validated,,Gaza strip,Gaza Governorate,CE20231007PSE,"34","32"
34.4480633700001,31.5038658400001,"421",Building (General / Default),2023/10/10 00:00:00,WorldView-2,Medium,Moderate Damage,Damaged Buildings,Not yet field validated,,Gaza strip,Gaza Governorate,CE20231007PSE,"34","32"
34.447894202,31.5039744860001,"422",Building (General / Default),2023/10/10 00:00:00,WorldView-2,Medium,Moderate Damage,Damaged Buildings,Not yet field validated,,Gaza strip,Gaza Governorate,CE20231007PSE,"34","32"
34.448209305,31.503635478,"423",Building (General / Default),2023/10/10 00:00:00,WorldView-2,Medium,Moderate Damage,Damaged Buildings,Not yet field validated,,Gaza strip,Gaza Governorate,CE20231007PSE,"34","32"
34.447677243,31.5035225700001,"424",Building (General / Default),2023/10/10 00:00:00,WorldView-2,Medium,Moderate Damage,Damaged Buildings,Not yet field validated,,Gaza strip,Gaza Governorate,CE20231007PSE,"34","32"
34.4475920850001,31.5037705410001,"425",Building (General / Default),2023/10/10 00:00:00,WorldView-2,Medium,Moderate Damage,Damaged Buildings,Not yet field validated,,Gaza strip,Gaza Governorate,CE20231007PSE,"34","32"
34.4214764640001,31.5075146060001,"426",Building (General / Default),2023/10/10 00:00:00,WorldView-2,Very High,Destroyed,Damaged Buildings,Not yet field validated,,Gaza strip,Gaza Governorate,CE20231007PSE,"34","32"
34.4217065400001,31.507650229,"427",Building (General / Default),2023/10/10 00:00:00,WorldView-2,Medium,Moderate Damage,Damaged Buildings,Not yet field validated,,Gaza strip,Gaza Governorate,CE20231007PSE,"34","32"
34.421401861,31.5077298520001,"428",Building (General / Default),2023/10/10 00:00:00,WorldView-2,Medium,Moderate Damage,Damaged Buildings,Not yet field validated,,Gaza strip,Gaza Governorate,CE20231007PSE,"34","32"
34.4272126610001,31.5091279600001,"429",Building (General / Default),2023/10/10 00:00:00,WorldView-2,Very High,Severe Damage,Damaged Buildings,Not yet field validated,,Gaza strip,Gaza Governorate,CE20231007PSE,"34","32"
34.4313657280001,31.5079380070001,"430",Building (General / Default),2023/10/10 00:00:00,WorldView-2,Medium,Moderate Damage,Damaged Buildings,Not yet field validated,,Gaza strip,Gaza Governorate,CE20231007PSE,"34","32"
34.4429484090001,31.4980352810001,"431",Building (General / Default),2023/10/10 00:00:00,WorldView-2,Medium,Moderate Damage,Damaged Buildings,Not yet field validated,,Gaza strip,Gaza Governorate,CE20231007PSE,"34","31"
34.419210148,31.5041952400001,"432",Building (General / Default),2023/10/10 00:00:00,WorldView-2,Very High,Destroyed,Damaged Buildings,Not yet field validated,,Gaza strip,Gaza Governorate,CE20231007PSE,"34","32"
34.4190919750001,31.504147759,"433",Building (General / Default),2023/10/10 00:00:00,WorldView-2,Medium,Moderate Damage,Damaged Buildings,Not yet field validated,,Gaza strip,Gaza Governorate,CE20231007PSE,"34","32"
34.418902802,31.5043480740001,"434",Building (General / Default),2023/10/10 00:00:00,WorldView-2,Medium,Moderate Damage,Damaged Buildings,Not yet field validated,,Gaza strip,Gaza Governorate,CE20231007PSE,"34","32"
34.4195792800001,31.5041271060001,"435",Building (General / Default),2023/10/10 00:00:00,WorldView-2,Medium,Moderate Damage,Damaged Buildings,Not yet field validated,,Gaza strip,Gaza Governorate,CE20231007PSE,"34","32"
34.4228690680001,31.500906898,"436",Building (General / Default),2023/10/10 00:00:00,WorldView-2,Very High,Destroyed,Damaged Buildings,Not yet field validated,,Gaza strip,Gaza Governorate,CE20231007PSE,"34","32"
34.4230167690001,31.5010241850001,"437",Building (General / Default),2023/10/10 00:00:00,WorldView-2,Medium,Moderate Damage,Damaged Buildings,Not yet field validated,,Gaza strip,Gaza Governorate,CE20231007PSE,"34","32"
34.4230316050001,31.5008288530001,"438",Building (General / Default),2023/10/10 00:00:00,WorldView-2,Medium,Moderate Damage,Damaged Buildings,Not yet field validated,,Gaza strip,Gaza Governorate,CE20231007PSE,"34","32"
34.4228414340001,31.500727285,"439",Building (General / Default),2023/10/10 00:00:00,WorldView-2,Medium,Moderate Damage,Damaged Buildings,Not yet field validated,,Gaza strip,Gaza Governorate,CE20231007PSE,"34","32"
34.4226454810001,31.500949027,"440",Building (General / Default),2023/10/10 00:00:00,WorldView-2,Medium,Moderate Damage,Damaged Buildings,Not yet field validated,,Gaza strip,Gaza Governorate,CE20231007PSE,"34","32"
34.422524212,31.501166889,"441",Building (General / Default),2023/10/10 00:00:00,WorldView-2,Medium,Moderate Damage,Damaged Buildings,Not yet field validated,,Gaza strip,Gaza Governorate,CE20231007PSE,"34","32"
34.4293399100001,31.5021003130001,"442",Building (General / Default),2023/10/10 00:00:00,WorldView-2,Very High,Destroyed,Damaged Buildings,Not yet field validated,,Gaza strip,Gaza Governorate,CE20231007PSE,"34","32"
34.4295129480001,31.502244755,"443",Building (General / Default),2023/10/10 00:00:00,WorldView-2,Very High,Severe Damage,Damaged Buildings,Not yet field validated,,Gaza strip,Gaza Governorate,CE20231007PSE,"34","32"
34.4296493340001,31.5023194680001,"444",Building (General / Default),2023/10/10 00:00:00,WorldView-2,Medium,Moderate Damage,Damaged Buildings,Not yet field validated,,Gaza strip,Gaza Governorate,CE20231007PSE,"34","32"
34.4297166360001,31.5025321800001,"445",Building (General / Default),2023/10/10 00:00:00,WorldView-2,Medium,Moderate Damage,Damaged Buildings,Not yet field validated,,Gaza strip,Gaza Governorate,CE20231007PSE,"34","32"
34.4291665480001,31.501934528,"446",Building (General / Default),2023/10/10 00:00:00,WorldView-2,Medium,Moderate Damage,Damaged Buildings,Not yet field validated,,Gaza strip,Gaza Governorate,CE20231007PSE,"34","32"
34.4295007270001,31.501909448,"447",Building (General / Default),2023/10/10 00:00:00,WorldView-2,Medium,Moderate Damage,Damaged Buildings,Not yet field validated,,Gaza strip,Gaza Governorate,CE20231007PSE,"34","32"
34.4291487820001,31.502404347,"448",Building (General / Default),2023/10/10 00:00:00,WorldView-2,Medium,Moderate Damage,Damaged Buildings,Not yet field validated,,Gaza strip,Gaza Governorate,CE20231007PSE,"34","32"
34.4292675140001,31.5024884060001,"449",Building (General / Default),2023/10/10 00:00:00,WorldView-2,Medium,Moderate Damage,Damaged Buildings,Not yet field validated,,Gaza strip,Gaza Governorate,CE20231007PSE,"34","32"
34.4293826410001,31.5025694560001,"450",Building (General / Default),2023/10/10 00:00:00,WorldView-2,Medium,Moderate Damage,Damaged Buildings,Not yet field validated,,Gaza strip,Gaza Governorate,CE20231007PSE,"34","32"
34.4282772280001,31.4946500880001,"451",Building (General / Default),2023/10/10 00:00:00,WorldView-2,Medium,Moderate Damage,Damaged Buildings,Not yet field validated,,Gaza strip,Gaza Governorate,CE20231007PSE,"34","31"
34.4279551370001,31.4950443980001,"452",Greenhouse,2023/10/10 00:00:00,WorldView-2,Medium,Moderate Damage,Damaged Greenhouses,Not yet field validated,,Gaza strip,Gaza Governorate,CE20231007PSE,"34","31"
34.447861678,31.4920916220001,"453",Building (General / Default),2023/10/10 00:00:00,WorldView-2,Very High,Destroyed,Damaged Buildings,Not yet field validated,,Gaza strip,Gaza Governorate,CE20231007PSE,"34","31"
34.447598735,31.4919869930001,"454",Building (General / Default),2023/10/10 00:00:00,WorldView-2,Very High,Severe Damage,Damaged Buildings,Not yet field validated,,Gaza strip,Gaza Governorate,CE20231007PSE,"34","31"
34.447652255,31.4917159240001,"455",Building (General / Default),2023/10/10 00:00:00,WorldView-2,Very High,Destroyed,Damaged Buildings,Not yet field validated,,Gaza strip,Gaza Governorate,CE20231007PSE,"34","31"
34.447776789,31.4918686500001,"456",Building (General / Default),2023/10/10 00:00:00,WorldView-2,Very High,Destroyed,Damaged Buildings,Not yet field validated,,Gaza strip,Gaza Governorate,CE20231007PSE,"34","31"
34.4475288870001,31.4916387980001,"457",Building (General / Default),2023/10/10 00:00:00,WorldView-2,Very High,Destroyed,Damaged Buildings,Not yet field validated,,Gaza strip,Gaza Governorate,CE20231007PSE,"34","31"
34.4473739940001,31.491498048,"458",Building (General / Default),2023/10/10 00:00:00,WorldView-2,Very High,Severe Damage,Damaged Buildings,Not yet field validated,,Gaza strip,Gaza Governorate,CE20231007PSE,"34","31"
34.4472635830001,31.4916010840001,"459",Building (General / Default),2023/10/10 00:00:00,WorldView-2,Very High,Severe Damage,Damaged Buildings,Not yet field validated,,Gaza strip,Gaza Governorate,CE20231007PSE,"34","31"
34.447345715,31.4920858260001,"460",Building (General / Default),2023/10/10 00:00:00,WorldView-2,Very High,Destroyed,Damaged Buildings,Not yet field validated,,Gaza strip,Gaza Governorate,CE20231007PSE,"34","31"
34.4471492950001,31.4918931970001,"461",Building (General / Default),2023/10/10 00:00:00,WorldView-2,Medium,Moderate Damage,Damaged Buildings,Not yet field validated,,Gaza strip,Gaza Governorate,CE20231007PSE,"34","31"
34.4479030370001,31.4923528930001,"462",Building (General / Default),2023/10/10 00:00:00,WorldView-2,Medium,Moderate Damage,Damaged Buildings,Not yet field validated,,Gaza strip,Gaza Governorate,CE20231007PSE,"34","31"
34.4475828550001,31.4922779930001,"463",Building (General / Default),2023/10/10 00:00:00,WorldView-2,Medium,Moderate Damage,Damaged Buildings,Not yet field validated,,Gaza strip,Gaza Governorate,CE20231007PSE,"34","31"
34.4355511970001,31.4869315390001,"464",Building (General / Default),2023/10/10 00:00:00,WorldView-2,Medium,Moderate Damage,Damaged Buildings,Not yet field validated,,Gaza strip,Gaza Governorate,CE20231007PSE,"34","31"
34.4355833070001,31.4868119420001,"465",Building (General / Default),2023/10/10 00:00:00,WorldView-2,Medium,Moderate Damage,Damaged Buildings,Not yet field validated,,Gaza strip,Gaza Governorate,CE20231007PSE,"34","31"
34.4268489550001,31.491061647,"466",Building (General / Default),2023/10/10 00:00:00,WorldView-2,Very High,Destroyed,Damaged Buildings,Not yet field validated,,Gaza strip,Gaza Governorate,CE20231007PSE,"34","31"
34.4269516260001,31.4911877370001,"467",Building (General / Default),2023/10/10 00:00:00,WorldView-2,Medium,Moderate Damage,Damaged Buildings,Not yet field validated,,Gaza strip,Gaza Governorate,CE20231007PSE,"34","31"
34.4270334230001,31.490986885,"468",Building (General / Default),2023/10/10 00:00:00,WorldView-2,Medium,Moderate Damage,Damaged Buildings,Not yet field validated,,Gaza strip,Gaza Governorate,CE20231007PSE,"34","31"
34.426746768,31.4909673600001,"469",Building (General / Default),2023/10/10 00:00:00,WorldView-2,Medium,Moderate Damage,Damaged Buildings,Not yet field validated,,Gaza strip,Gaza Governorate,CE20231007PSE,"34","31"
34.426242668,31.4912956100001,"470",Building (General / Default),2023/10/10 00:00:00,WorldView-2,Medium,Moderate Damage,Damaged Buildings,Not yet field validated,,Gaza strip,Gaza Governorate,CE20231007PSE,"34","31"
34.426833591,31.4907482760001,"471",Building (General / Default),2023/10/10 00:00:00,WorldView-2,Medium,Moderate Damage,Damaged Buildings,Not yet field validated,,Gaza strip,Gaza Governorate,CE20231007PSE,"34","31"
34.4132004620001,31.4953087840001,"472",Building (General / Default),2023/10/10 00:00:00,WorldView-2,Very High,Destroyed,Damaged Buildings,Not yet field validated,,Gaza strip,Gaza Governorate,CE20231007PSE,"34","31"
34.4133629740001,31.4955076570001,"473",Building (General / Default),2023/10/10 00:00:00,WorldView-2,Very High,Destroyed,Damaged Buildings,Not yet field validated,,Gaza strip,Gaza Governorate,CE20231007PSE,"34","31"
34.4136310600001,31.4955046960001,"474",Building (General / Default),2023/10/10 00:00:00,WorldView-2,Medium,Moderate Damage,Damaged Buildings,Not yet field validated,,Gaza strip,Gaza Governorate,CE20231007PSE,"34","31"
34.4188077810001,31.4951498570001,"475",Building (General / Default),2023/10/10 00:00:00,WorldView-2,Very High,Destroyed,Damaged Buildings,Not yet field validated,,Gaza strip,Gaza Governorate,CE20231007PSE,"34","31"
34.4219121680001,31.49346153,"476",Building (General / Default),2023/10/10 00:00:00,WorldView-2,Very High,Destroyed,Damaged Buildings,Not yet field validated,,Gaza strip,Gaza Governorate,CE20231007PSE,"34","31"
34.4216764830001,31.493362361,"477",Building (General / Default),2023/10/10 00:00:00,WorldView-2,Very High,Severe Damage,Damaged Buildings,Not yet field validated,,Gaza strip,Gaza Governorate,CE20231007PSE,"34","31"
34.421893744,31.4935896970001,"478",Building (General / Default),2023/10/10 00:00:00,WorldView-2,Very High,Severe Damage,Damaged Buildings,Not yet field validated,,Gaza strip,Gaza Governorate,CE20231007PSE,"34","31"
34.4220872560001,31.4935933630001,"479",Building (General / Default),2023/10/10 00:00:00,WorldView-2,Medium,Moderate Damage,Damaged Buildings,Not yet field validated,,Gaza strip,Gaza Governorate,CE20231007PSE,"34","31"
34.421187623,31.4944758240001,"480",Building (General / Default),2023/10/10 00:00:00,WorldView-2,Very High,Destroyed,Damaged Buildings,Not yet field validated,,Gaza strip,Gaza Governorate,CE20231007PSE,"34","31"
34.421389112,31.494557924,"481",Building (General / Default),2023/10/10 00:00:00,WorldView-2,Very High,Destroyed,Damaged Buildings,Not yet field validated,,Gaza strip,Gaza Governorate,CE20231007PSE,"34","31"
34.421490701,31.4943183220001,"482",Building (General / Default),2023/10/10 00:00:00,WorldView-2,Very High,Severe Damage,Damaged Buildings,Not yet field validated,,Gaza strip,Gaza Governorate,CE20231007PSE,"34","31"
34.4213323100001,31.494392786,"483",Building (General / Default),2023/10/10 00:00:00,WorldView-2,Very High,Severe Damage,Damaged Buildings,Not yet field validated,,Gaza strip,Gaza Governorate,CE20231007PSE,"34","31"
34.4221380340001,31.4931362080001,"484",Building (General / Default),2023/10/10 00:00:00,WorldView-2,Very High,Severe Damage,Damaged Buildings,Not yet field validated,,Gaza strip,Gaza Governorate,CE20231007PSE,"34","31"
34.4221672500001,31.4932725690001,"485",Building (General / Default),2023/10/10 00:00:00,WorldView-2,Very High,Destroyed,Damaged Buildings,Not yet field validated,,Gaza strip,Gaza Governorate,CE20231007PSE,"34","31"
34.4545605540001,31.540698697,"486",Building (General / Default),2023/10/10 00:00:00,WorldView-2,Medium,Moderate Damage,Damaged Buildings,Not yet field validated,,Gaza strip,Gaza Governorate,CE20231007PSE,"34","32"
34.4548583270001,31.540218833,"487",Building (General / Default),2023/10/10 00:00:00,WorldView-2,Medium,Moderate Damage,Damaged Buildings,Not yet field validated,,Gaza strip,Gaza Governorate,CE20231007PSE,"34","32"
34.4075842830001,31.4816300370001,"488",Building (General / Default),2023/10/10 00:00:00,WorldView-2,Very High,Destroyed,Damaged Buildings,Not yet field validated,,Gaza strip,Gaza Governorate,CE20231007PSE,"34","31"
34.4078368460001,31.4817740870001,"489",Building (General / Default),2023/10/10 00:00:00,WorldView-2,Very High,Destroyed,Damaged Buildings,Not yet field validated,,Gaza strip,Gaza Governorate,CE20231007PSE,"34","31"
34.408591657,31.4817206050001,"490",Building (General / Default),2023/10/10 00:00:00,WorldView-2,Medium,Moderate Damage,Damaged Buildings,Not yet field validated,,Gaza strip,Gaza Governorate,CE20231007PSE,"34","31"
34.406920315,31.4833503310001,"491",Building (General / Default),2023/10/10 00:00:00,WorldView-2,Very High,Destroyed,Damaged Buildings,Not yet field validated,,Gaza strip,Gaza Governorate,CE20231007PSE,"34","31"
34.4196309770001,31.4697000660001,"492",Building (General / Default),2023/10/10 00:00:00,WorldView-2,Medium,Moderate Damage,Damaged Buildings,Not yet field validated,,Gaza strip,Gaza Governorate,CE20231007PSE,"34","31"
34.4200387290001,31.467225822,"493",Building (General / Default),2023/10/10 00:00:00,WorldView-2,Very High,Severe Damage,Damaged Buildings,Not yet field validated,,Gaza strip,Gaza Governorate,CE20231007PSE,"34","31"
34.4199187520001,31.467347627,"494",Building (General / Default),2023/10/10 00:00:00,WorldView-2,Medium,Moderate Damage,Damaged Buildings,Not yet field validated,,Gaza strip,Gaza Governorate,CE20231007PSE,"34","31"
34.4198453330001,31.4671396190001,"495",Building (General / Default),2023/10/10 00:00:00,WorldView-2,Medium,Moderate Damage,Damaged Buildings,Not yet field validated,,Gaza strip,Gaza Governorate,CE20231007PSE,"34","31"
34.4787340380001,31.51055482,"496",Building (General / Default),2023/10/10 00:00:00,WorldView-2,Medium,Moderate Damage,Damaged Buildings,Not yet field validated,,Gaza strip,Gaza Governorate,CE20231007PSE,"34","32"
34.4788993670001,31.510489566,"497",Building (General / Default),2023/10/10 00:00:00,WorldView-2,Medium,Moderate Damage,Damaged Buildings,Not yet field validated,,Gaza strip,Gaza Governorate,CE20231007PSE,"34","32"
34.4785763990001,31.5102280520001,"498",Building (General / Default),2023/10/10 00:00:00,WorldView-2,Medium,Moderate Damage,Damaged Buildings,Not yet field validated,,Gaza strip,Gaza Governorate,CE20231007PSE,"34","32"
34.4783677090001,31.5103274580001,"499",Building (General / Default),2023/10/10 00:00:00,WorldView-2,Medium,Moderate Damage,Damaged Buildings,Not yet field validated,,Gaza strip,Gaza Governorate,CE20231007PSE,"34","32"
34.462260841,31.4751236740001,"500",Building (General / Default),2023/10/10 00:00:00,WorldView-2,Very High,Severe Damage,Damaged Buildings,Not yet field validated,,Gaza strip,Gaza Governorate,CE20231007PSE,"34","31"
34.4621413150001,31.47516067,"501",Building (General / Default),2023/10/10 00:00:00,WorldView-2,Very High,Destroyed,Damaged Buildings,Not yet field validated,,Gaza strip,Gaza Governorate,CE20231007PSE,"34","31"
34.4621158510001,31.4753054620001,"502",Building (General / Default),2023/10/10 00:00:00,WorldView-2,Very High,Severe Damage,Damaged Buildings,Not yet field validated,,Gaza strip,Gaza Governorate,CE20231007PSE,"34","31"
34.4727499370001,31.487426553,"503",Building (General / Default),2023/10/10 00:00:00,WorldView-2,Very High,Destroyed,Damaged Buildings,Not yet field validated,,Gaza strip,Gaza Governorate,CE20231007PSE,"34","31"
34.4747964370001,31.488008703,"504",Building (General / Default),2023/10/10 00:00:00,WorldView-2,Very High,Destroyed,Damaged Buildings,Not yet field validated,,Gaza strip,Gaza Governorate,CE20231007PSE,"34","31"
34.474867213,31.488102901,"505",Building (General / Default),2023/10/10 00:00:00,WorldView-2,Very High,Destroyed,Damaged Buildings,Not yet field validated,,Gaza strip,Gaza Governorate,CE20231007PSE,"34","31"
34.4746845870001,31.4891244290001,"506",Building (General / Default),2023/10/10 00:00:00,WorldView-2,Medium,Moderate Damage,Damaged Buildings,Not yet field validated,,Gaza strip,Gaza Governorate,CE20231007PSE,"34","31"
34.4743512650001,31.4890807620001,"507",Building (General / Default),2023/10/10 00:00:00,WorldView-2,Medium,Moderate Damage,Damaged Buildings,Not yet field validated,,Gaza strip,Gaza Governorate,CE20231007PSE,"34","31"
34.4748380880001,31.4886020610001,"508",Building (General / Default),2023/10/10 00:00:00,WorldView-2,Medium,Moderate Damage,Damaged Buildings,Not yet field validated,,Gaza strip,Gaza Governorate,CE20231007PSE,"34","31"
34.4748928450001,31.4884114020001,"509",Building (General / Default),2023/10/10 00:00:00,WorldView-2,Medium,Moderate Damage,Damaged Buildings,Not yet field validated,,Gaza strip,Gaza Governorate,CE20231007PSE,"34","31"
34.4749926630001,31.4882954430001,"510",Building (General / Default),2023/10/10 00:00:00,WorldView-2,Medium,Moderate Damage,Damaged Buildings,Not yet field validated,,Gaza strip,Gaza Governorate,CE20231007PSE,"34","31"
34.4741657040001,31.4881485930001,"511",Building (General / Default),2023/10/10 00:00:00,WorldView-2,Medium,Moderate Damage,Damaged Buildings,Not yet field validated,,Gaza strip,Gaza Governorate,CE20231007PSE,"34","31"
34.4740825110001,31.4879991120001,"512",Building (General / Default),2023/10/10 00:00:00,WorldView-2,Medium,Moderate Damage,Damaged Buildings,Not yet field validated,,Gaza strip,Gaza Governorate,CE20231007PSE,"34","31"
34.475398355,31.4883877600001,"513",Building (General / Default),2023/10/10 00:00:00,WorldView-2,Medium,Moderate Damage,Damaged Buildings,Not yet field validated,,Gaza strip,Gaza Governorate,CE20231007PSE,"34","31"
34.4752358680001,31.4884846470001,"514",Building (General / Default),2023/10/10 00:00:00,WorldView-2,Medium,Moderate Damage,Damaged Buildings,Not yet field validated,,Gaza strip,Gaza Governorate,CE20231007PSE,"34","31"
34.4755656660001,31.4880097330001,"515",Building (General / Default),2023/10/10 00:00:00,WorldView-2,Medium,Moderate Damage,Damaged Buildings,Not yet field validated,,Gaza strip,Gaza Governorate,CE20231007PSE,"34","31"
34.4754307090001,31.4880944270001,"516",Building (General / Default),2023/10/10 00:00:00,WorldView-2,Medium,Moderate Damage,Damaged Buildings,Not yet field validated,,Gaza strip,Gaza Governorate,CE20231007PSE,"34","31"
34.4744795290001,31.4884221030001,"517",Building (General / Default),2023/10/10 00:00:00,WorldView-2,Very High,Severe Damage,Damaged Buildings,Not yet field validated,,Gaza strip,Gaza Governorate,CE20231007PSE,"34","31"
34.4767510400001,31.4875922510001,"518",Building (General / Default),2023/10/10 00:00:00,WorldView-2,Very High,Destroyed,Damaged Buildings,Not yet field validated,,Gaza strip,Gaza Governorate,CE20231007PSE,"34","31"
34.4760443520001,31.4881902830001,"519",Building (General / Default),2023/10/10 00:00:00,WorldView-2,Very High,Destroyed,Damaged Buildings,Not yet field validated,,Gaza strip,Gaza Governorate,CE20231007PSE,"34","31"
34.4751889950001,31.4880002190001,"520",Building (General / Default),2023/10/10 00:00:00,WorldView-2,Very High,Severe Damage,Damaged Buildings,Not yet field validated,,Gaza strip,Gaza Governorate,CE20231007PSE,"34","31"
34.475049449,31.4880869450001,"521",Building (General / Default),2023/10/10 00:00:00,WorldView-2,Very High,Severe Damage,Damaged Buildings,Not yet field validated,,Gaza strip,Gaza Governorate,CE20231007PSE,"34","31"
34.429894533,31.5024345310001,"522",Building (General / Default),2023/10/10 00:00:00,WorldView-2,Medium,Moderate Damage,Damaged Buildings,Not yet field validated,,Gaza strip,Gaza Governorate,CE20231007PSE,"34","32"
34.4300890820001,31.5024074780001,"523",Building (General / Default),2023/10/10 00:00:00,WorldView-2,Medium,Moderate Damage,Damaged Buildings,Not yet field validated,,Gaza strip,Gaza Governorate,CE20231007PSE,"34","32"
34.4420519010001,31.5336259200001,"524",Building (General / Default),2023/10/10 00:00:00,WorldView-2,Very High,Destroyed,Damaged Buildings,Not yet field validated,,Gaza strip,Gaza Governorate,CE20231007PSE,"34","32"
34.4431453510001,31.533585153,"525",Building (General / Default),2023/10/10 00:00:00,WorldView-2,Medium,Moderate Damage,Damaged Buildings,Not yet field validated,,Gaza strip,Gaza Governorate,CE20231007PSE,"34","32"
34.442996216,31.5336910880001,"526",Building (General / Default),2023/10/10 00:00:00,WorldView-2,Medium,Moderate Damage,Damaged Buildings,Not yet field validated,,Gaza strip,Gaza Governorate,CE20231007PSE,"34","32"
34.4909035090001,31.5096229200001,"528",Building (General / Default),2023/10/10 00:00:00,WorldView-2,Very High,Severe Damage,Damaged Buildings,Not yet field validated,,Gaza strip,Gaza Governorate,CE20231007SPE,"34","32"
34.4898654190001,31.4906779240001,"529",Building (General / Default),2023/10/10 00:00:00,WorldView-2,Medium,Moderate Damage,Damaged Buildings,Not yet field validated,,Gaza Strip,Gaza Governorate,CE20231007SPE,"34","31"
34.487538031,31.492910533,"530",Building (General / Default),2023/10/10 00:00:00,WorldView-2,Very High,Destroyed,Damaged Buildings,Not yet field validated,,Gaza Strip,Gaza Governorate,CE20231007SPE,"34","31"
34.4876158800001,31.4930145010001,"531",Building (General / Default),2023/10/10 00:00:00,WorldView-2,Very High,Destroyed,Damaged Buildings,Not yet field validated,,Gaza Strip,Gaza Governorate,CE20231007SPE,"34","31"
34.4873058630001,31.49249524,"532",Building (General / Default),2023/10/10 00:00:00,WorldView-2,Medium,Moderate Damage,Damaged Buildings,Not yet field validated,,Gaza Strip,Gaza Governorate,CE20231007SPE,"34","31"
34.4854435230001,31.4946450740001,"535",Building (General / Default),2023/10/10 00:00:00,WorldView-2,Very High,Destroyed,Damaged Buildings,Not yet field validated,,Gaza Strip,Gaza Governorate,CE20231007SPE,"34","31"
34.4854537480001,31.4947335960001,"536",Building (General / Default),2023/10/10 00:00:00,WorldView-2,Very High,Destroyed,Damaged Buildings,Not yet field validated,,Gaza Strip,Gaza Governorate,CE20231007SPE,"34","31"
34.4858619400001,31.4947486180001,"537",Building (General / Default),2023/10/10 00:00:00,WorldView-2,Very High,Severe Damage,Damaged Buildings,Not yet field validated,,Gaza strip,Gaza Governorate,CE20231007SPE,"34","31"
34.4848402790001,31.4951913300001,"538",Building (General / Default),2023/10/10 00:00:00,WorldView-2,Medium,Moderate Damage,Damaged Buildings,Not yet field validated,,Gaza Strip,Gaza Governorate,CE20231007SPE,"34","31"
34.484734824,31.495135889,"539",Building (General / Default),2023/10/10 00:00:00,WorldView-2,Medium,Moderate Damage,Damaged Buildings,Not yet field validated,,Gaza Strip,Gaza Governorate,CE20231007SPE,"34","31"
34.4871269120001,31.4874903,"540",Building (General / Default),2023/10/10 00:00:00,WorldView-2,Very High,Severe Damage,Damaged Buildings,Not yet field validated,,Gaza strip,Gaza Governorate,CE20231007SPE,"34","31"
34.4864605220001,31.4872648520001,"541",Building (General / Default),2023/10/10 00:00:00,WorldView-2,Very High,Severe Damage,Damaged Buildings,Not yet field validated,,Gaza strip,Gaza Governorate,CE20231007SPE,"34","31"
34.4863491730001,31.48583784,"542",Building (General / Default),2023/10/10 00:00:00,WorldView-2,Very High,Destroyed,Damaged Buildings,Not yet field validated,,Gaza Strip,Gaza Governorate,CE20231007SPE,"34","31"
34.4814775140001,31.4850691000001,"543",Building (General / Default),2023/10/10 00:00:00,WorldView-2,Very High,Destroyed,Damaged Buildings,Not yet field validated,,Gaza Strip,Gaza Governorate,CE20231007SPE,"34","31"
34.481608625,31.4851945290001,"544",Building (General / Default),2023/10/10 00:00:00,WorldView-2,Very High,Destroyed,Damaged Buildings,Not yet field validated,,Gaza Strip,Gaza Governorate,CE20231007SPE,"34","31"
34.481863978,31.484861778,"545",Building (General / Default),2023/10/10 00:00:00,WorldView-2,Medium,Moderate Damage,Damaged Buildings,Not yet field validated,,Gaza Strip,Gaza Governorate,CE20231007SPE,"34","31"
34.4819660670001,31.4849259270001,"546",Building (General / Default),2023/10/10 00:00:00,WorldView-2,Medium,Moderate Damage,Damaged Buildings,Not yet field validated,,Gaza Strip,Gaza Governorate,CE20231007SPE,"34","31"
34.4818899720001,31.4850049600001,"547",Building (General / Default),2023/10/10 00:00:00,WorldView-2,Medium,Moderate Damage,Damaged Buildings,Not yet field validated,,Gaza Strip,Gaza Governorate,CE20231007SPE,"34","31"
34.4817881480001,31.4848776680001,"548",Building (General / Default),2023/10/10 00:00:00,WorldView-2,Very High,Destroyed,Damaged Buildings,Not yet field validated,,Gaza Strip,Gaza Governorate,CE20231007SPE,"34","31"
34.4832638070001,31.4837910960001,"549",Building (General / Default),2023/10/10 00:00:00,WorldView-2,Very High,Severe Damage,Damaged Buildings,Not yet field validated,,Gaza strip,Gaza Governorate,CE20231007SPE,"34","31"
34.4834870640001,31.4821203530001,"550",Building (General / Default),2023/10/10 00:00:00,WorldView-2,Very High,Destroyed,Damaged Buildings,Not yet field validated,,Gaza Strip,Gaza Governorate,CE20231007SPE,"34","31"
34.4835328830001,31.4821595720001,"551",Building (General / Default),2023/10/10 00:00:00,WorldView-2,Very High,Destroyed,Damaged Buildings,Not yet field validated,,Gaza Strip,Gaza Governorate,CE20231007SPE,"34","31"
34.482781785,31.4861522040001,"552",Building (General / Default),2023/10/10 00:00:00,WorldView-2,Very High,Severe Damage,Damaged Buildings,Not yet field validated,,Gaza strip,Gaza Governorate,CE20231007SPE,"34","31"
34.4827559340001,31.4866502170001,"553",Building (General / Default),2023/10/10 00:00:00,WorldView-2,Very High,Severe Damage,Damaged Buildings,Not yet field validated,,Gaza strip,Gaza Governorate,CE20231007SPE,"34","31"
34.4830303800001,31.4867702980001,"554",Building (General / Default),2023/10/10 00:00:00,WorldView-2,Very High,Severe Damage,Damaged Buildings,Not yet field validated,,Gaza strip,Gaza Governorate,CE20231007SPE,"34","31"
34.4838030230001,31.4870012140001,"555",Building (General / Default),2023/10/10 00:00:00,WorldView-2,Very High,Severe Damage,Damaged Buildings,Not yet field validated,,Gaza strip,Gaza Governorate,CE20231007SPE,"34","31"
34.483573391,31.4868472520001,"556",Building (General / Default),2023/10/10 00:00:00,WorldView-2,Very High,Destroyed,Damaged Buildings,Not yet field validated,,Gaza Strip,Gaza Governorate,CE20231007SPE,"34","31"
34.483889031,31.4874649290001,"557",Building (General / Default),2023/10/10 00:00:00,WorldView-2,Very High,Destroyed,Damaged Buildings,Not yet field validated,,Gaza Strip,Gaza Governorate,CE20231007SPE,"34","31"
34.4837605930001,31.4872728720001,"558",Building (General / Default),2023/10/10 00:00:00,WorldView-2,Very High,Destroyed,Damaged Buildings,Not yet field validated,,Gaza Strip,Gaza Governorate,CE20231007SPE,"34","31"
34.482903423,31.487434996,"559",Building (General / Default),2023/10/10 00:00:00,WorldView-2,Very High,Severe Damage,Damaged Buildings,Not yet field validated,,Gaza strip,Gaza Governorate,CE20231007SPE,"34","31"
34.481496226,31.4863400240001,"560",Building (General / Default),2023/10/10 00:00:00,WorldView-2,Very High,Destroyed,Damaged Buildings,Not yet field validated,,Gaza Strip,Gaza Governorate,CE20231007SPE,"34","31"
34.481636134,31.4864331630001,"561",Building (General / Default),2023/10/10 00:00:00,WorldView-2,Very High,Severe Damage,Damaged Buildings,Not yet field validated,,Gaza strip,Gaza Governorate,CE20231007SPE,"34","31"
34.4817178540001,31.4872430250001,"562",Building (General / Default),2023/10/10 00:00:00,WorldView-2,Very High,Destroyed,Damaged Buildings,Not yet field validated,,Gaza Strip,Gaza Governorate,CE20231007SPE,"34","31"
34.4810956210001,31.4872696290001,"563",Building (General / Default),2023/10/10 00:00:00,WorldView-2,Very High,Destroyed,Damaged Buildings,Not yet field validated,,Gaza Strip,Gaza Governorate,CE20231007SPE,"34","31"
34.480918424,31.4874216490001,"564",Building (General / Default),2023/10/10 00:00:00,WorldView-2,Very High,Destroyed,Damaged Buildings,Not yet field validated,,Gaza Strip,Gaza Governorate,CE20231007SPE,"34","31"
34.4808275500001,31.4874947390001,"565",Building (General / Default),2023/10/10 00:00:00,WorldView-2,Very High,Destroyed,Damaged Buildings,Not yet field validated,,Gaza Strip,Gaza Governorate,CE20231007SPE,"34","31"
34.4812664080001,31.4873038760001,"566",Building (General / Default),2023/10/10 00:00:00,WorldView-2,Very High,Destroyed,Damaged Buildings,Not yet field validated,,Gaza Strip,Gaza Governorate,CE20231007SPE,"34","31"
34.4811633180001,31.487378676,"567",Building (General / Default),2023/10/10 00:00:00,WorldView-2,Medium,Moderate Damage,Damaged Buildings,Not yet field validated,,Gaza Strip,Gaza Governorate,CE20231007SPE,"34","31"
34.4785699760001,31.4871115590001,"568",Building (General / Default),2023/10/10 00:00:00,WorldView-2,Very High,Destroyed,Damaged Buildings,Not yet field validated,,Gaza Strip,Gaza Governorate,CE20231007SPE,"34","31"
34.4792417720001,31.4871428220001,"569",Building (General / Default),2023/10/10 00:00:00,WorldView-2,Very High,Destroyed,Damaged Buildings,Not yet field validated,,Gaza Strip,Gaza Governorate,CE20231007SPE,"34","31"
34.4793581700001,31.487169915,"570",Building (General / Default),2023/10/10 00:00:00,WorldView-2,Very High,Destroyed,Damaged Buildings,Not yet field validated,,Gaza Strip,Gaza Governorate,CE20231007SPE,"34","31"
34.479889471,31.4869092520001,"571",Building (General / Default),2023/10/10 00:00:00,WorldView-2,Very High,Destroyed,Damaged Buildings,Not yet field validated,,Gaza Strip,Gaza Governorate,CE20231007SPE,"34","31"
34.4798022610001,31.4870239840001,"572",Building (General / Default),2023/10/10 00:00:00,WorldView-2,Very High,Severe Damage,Damaged Buildings,Not yet field validated,,Gaza strip,Gaza Governorate,CE20231007SPE,"34","31"
34.4797244820001,31.486729816,"573",Building (General / Default),2023/10/10 00:00:00,WorldView-2,Very High,Severe Damage,Damaged Buildings,Not yet field validated,,Gaza strip,Gaza Governorate,CE20231007SPE,"34","31"
34.4799018500001,31.4865599110001,"574",Building (General / Default),2023/10/10 00:00:00,WorldView-2,Very High,Severe Damage,Damaged Buildings,Not yet field validated,,Gaza strip,Gaza Governorate,CE20231007SPE,"34","31"
34.4792567370001,31.4867896010001,"575",Building (General / Default),2023/10/10 00:00:00,WorldView-2,Very High,Destroyed,Damaged Buildings,Not yet field validated,,Gaza Strip,Gaza Governorate,CE20231007SPE,"34","31"
34.478778735,31.486987351,"576",Building (General / Default),2023/10/10 00:00:00,WorldView-2,Medium,Moderate Damage,Damaged Buildings,Not yet field validated,,Gaza Strip,Gaza Governorate,CE20231007SPE,"34","31"
34.4793761910001,31.487041919,"577",Building (General / Default),2023/10/10 00:00:00,WorldView-2,Medium,Moderate Damage,Damaged Buildings,Not yet field validated,,Gaza Strip,Gaza Governorate,CE20231007SPE,"34","31"
34.480053646,31.4873233330001,"578",Building (General / Default),2023/10/10 00:00:00,WorldView-2,Medium,Moderate Damage,Damaged Buildings,Not yet field validated,,Gaza Strip,Gaza Governorate,CE20231007SPE,"34","31"
34.479051413,31.4867257050001,"579",Building (General / Default),2023/10/10 00:00:00,WorldView-2,Very High,Severe Damage,Damaged Buildings,Not yet field validated,,Gaza strip,Gaza Governorate,CE20231007SPE,"34","31"
34.4790457500001,31.4869667240001,"580",Building (General / Default),2023/10/10 00:00:00,WorldView-2,Very High,Severe Damage,Damaged Buildings,Not yet field validated,,Gaza strip,Gaza Governorate,CE20231007SPE,"34","31"
34.4807512290001,31.4871742970001,"581",Building (General / Default),2023/10/10 00:00:00,WorldView-2,Very High,Destroyed,Damaged Buildings,Not yet field validated,,Gaza Strip,Gaza Governorate,CE20231007SPE,"34","31"
34.479361096,31.4873603930001,"582",Building (General / Default),2023/10/10 00:00:00,WorldView-2,Very High,Severe Damage,Damaged Buildings,Not yet field validated,,Gaza strip,Gaza Governorate,CE20231007SPE,"34","31"
34.480415098,31.4874969540001,"583",Building (General / Default),2023/10/10 00:00:00,WorldView-2,Very High,Severe Damage,Damaged Buildings,Not yet field validated,,Gaza strip,Gaza Governorate,CE20231007SPE,"34","31"
34.4802119410001,31.4873375190001,"584",Building (General / Default),2023/10/10 00:00:00,WorldView-2,Very High,Severe Damage,Damaged Buildings,Not yet field validated,,Gaza strip,Gaza Governorate,CE20231007SPE,"34","31"
34.4805758570001,31.48737199,"585",Building (General / Default),2023/10/10 00:00:00,WorldView-2,Medium,Moderate Damage,Damaged Buildings,Not yet field validated,,Gaza Strip,Gaza Governorate,CE20231007SPE,"34","31"
34.4784790200001,31.487874821,"586",Building (General / Default),2023/10/10 00:00:00,WorldView-2,Very High,Destroyed,Damaged Buildings,Not yet field validated,,Gaza Strip,Gaza Governorate,CE20231007SPE,"34","31"
34.4785129940001,31.4881953940001,"587",Building (General / Default),2023/10/10 00:00:00,WorldView-2,Very High,Severe Damage,Damaged Buildings,Not yet field validated,,Gaza strip,Gaza Governorate,CE20231007SPE,"34","31"
34.4785873700001,31.4877765370001,"588",Building (General / Default),2023/10/10 00:00:00,WorldView-2,Very High,Severe Damage,Damaged Buildings,Not yet field validated,,Gaza strip,Gaza Governorate,CE20231007SPE,"34","31"
34.478074205,31.4878076190001,"589",Building (General / Default),2023/10/10 00:00:00,WorldView-2,Medium,Moderate Damage,Damaged Buildings,Not yet field validated,,Gaza Strip,Gaza Governorate,CE20231007SPE,"34","31"
34.4782982870001,31.4880359620001,"590",Building (General / Default),2023/10/10 00:00:00,WorldView-2,Very High,Severe Damage,Damaged Buildings,Not yet field validated,,Gaza strip,Gaza Governorate,CE20231007SPE,"34","31"
34.4768507620001,31.4874902780001,"591",Building (General / Default),2023/10/10 00:00:00,WorldView-2,Very High,Severe Damage,Damaged Buildings,Not yet field validated,,Gaza strip,Gaza Governorate,CE20231007SPE,"34","31"
34.4765312220001,31.4874176450001,"592",Building (General / Default),2023/10/10 00:00:00,WorldView-2,Very High,Severe Damage,Damaged Buildings,Not yet field validated,,Gaza strip,Gaza Governorate,CE20231007SPE,"34","31"
34.4758484420001,31.487731163,"593",Building (General / Default),2023/10/10 00:00:00,WorldView-2,Very High,Severe Damage,Damaged Buildings,Not yet field validated,,Gaza strip,Gaza Governorate,CE20231007SPE,"34","31"
34.4755754670001,31.4877520800001,"594",Building (General / Default),2023/10/10 00:00:00,WorldView-2,Very High,Severe Damage,Damaged Buildings,Not yet field validated,,Gaza strip,Gaza Governorate,CE20231007SPE,"34","31"
34.4756867930001,31.4879287780001,"595",Building (General / Default),2023/10/10 00:00:00,WorldView-2,Very High,Severe Damage,Damaged Buildings,Not yet field validated,,Gaza strip,Gaza Governorate,CE20231007SPE,"34","31"
34.4746034010001,31.4878742430001,"596",Building (General / Default),2023/10/10 00:00:00,WorldView-2,Very High,Severe Damage,Damaged Buildings,Not yet field validated,,Gaza strip,Gaza Governorate,CE20231007SPE,"34","31"
34.4744290550001,31.4879795890001,"597",Building (General / Default),2023/10/10 00:00:00,WorldView-2,Very High,Severe Damage,Damaged Buildings,Not yet field validated,,Gaza strip,Gaza Governorate,CE20231007SPE,"34","31"
34.4749524120001,31.488192929,"598",Building (General / Default),2023/10/10 00:00:00,WorldView-2,Very High,Severe Damage,Damaged Buildings,Not yet field validated,,Gaza strip,Gaza Governorate,CE20231007SPE,"34","31"
34.474720339,31.488139747,"599",Building (General / Default),2023/10/10 00:00:00,WorldView-2,Very High,Severe Damage,Damaged Buildings,Not yet field validated,,Gaza strip,Gaza Governorate,CE20231007SPE,"34","31"
34.4767124200001,31.48776846,"600",Building (General / Default),2023/10/10 00:00:00,WorldView-2,Medium,Moderate Damage,Damaged Buildings,Not yet field validated,,Gaza Strip,Gaza Governorate,CE20231007SPE,"34","31"
34.4766527230001,31.4876974410001,"601",Building (General / Default),2023/10/10 00:00:00,WorldView-2,Medium,Moderate Damage,Damaged Buildings,Not yet field validated,,Gaza Strip,Gaza Governorate,CE20231007SPE,"34","31"
34.4761081410001,31.4874962480001,"602",Building (General / Default),2023/10/10 00:00:00,WorldView-2,Medium,Moderate Damage,Damaged Buildings,Not yet field validated,,Gaza Strip,Gaza Governorate,CE20231007SPE,"34","31"
34.4758088170001,31.487415807,"603",Building (General / Default),2023/10/10 00:00:00,WorldView-2,Medium,Moderate Damage,Damaged Buildings,Not yet field validated,,Gaza Strip,Gaza Governorate,CE20231007SPE,"34","31"
34.4756152520001,31.4875021020001,"604",Building (General / Default),2023/10/10 00:00:00,WorldView-2,Medium,Moderate Damage,Damaged Buildings,Not yet field validated,,Gaza Strip,Gaza Governorate,CE20231007SPE,"34","31"
34.4751698540001,31.4874620130001,"605",Building (General / Default),2023/10/10 00:00:00,WorldView-2,Medium,Moderate Damage,Damaged Buildings,Not yet field validated,,Gaza Strip,Gaza Governorate,CE20231007SPE,"34","31"
34.4754333370001,31.4876286800001,"606",Building (General / Default),2023/10/10 00:00:00,WorldView-2,Medium,Moderate Damage,Damaged Buildings,Not yet field validated,,Gaza Strip,Gaza Governorate,CE20231007SPE,"34","31"
34.4753206510001,31.4877062740001,"607",Building (General / Default),2023/10/10 00:00:00,WorldView-2,Medium,Moderate Damage,Damaged Buildings,Not yet field validated,,Gaza Strip,Gaza Governorate,CE20231007SPE,"34","31"
34.475983076,31.486350906,"608",Building (General / Default),2023/10/10 00:00:00,WorldView-2,Very High,Severe Damage,Damaged Buildings,Not yet field validated,,Gaza strip,Gaza Governorate,CE20231007SPE,"34","31"
34.4764015410001,31.487805424,"609",Building (General / Default),2023/10/10 00:00:00,WorldView-2,Very High,Severe Damage,Damaged Buildings,Not yet field validated,,Gaza strip,Gaza Governorate,CE20231007SPE,"34","31"
34.4765264810001,31.487923633,"610",Building (General / Default),2023/10/10 00:00:00,WorldView-2,Very High,Destroyed,Damaged Buildings,Not yet field validated,,Gaza Strip,Gaza Governorate,CE20231007SPE,"34","31"
34.4762467420001,31.4876348110001,"611",Building (General / Default),2023/10/10 00:00:00,WorldView-2,Very High,Destroyed,Damaged Buildings,Not yet field validated,,Gaza Strip,Gaza Governorate,CE20231007SPE,"34","31"
34.4766534510001,31.487242574,"612",Building (General / Default),2023/10/10 00:00:00,WorldView-2,Very High,Destroyed,Damaged Buildings,Not yet field validated,,Gaza Strip,Gaza Governorate,CE20231007SPE,"34","31"
34.4759897150001,31.487282297,"613",Building (General / Default),2023/10/10 00:00:00,WorldView-2,Very High,Destroyed,Damaged Buildings,Not yet field validated,,Gaza Strip,Gaza Governorate,CE20231007SPE,"34","31"
34.4756928370001,31.487067127,"614",Building (General / Default),2023/10/10 00:00:00,WorldView-2,Very High,Destroyed,Damaged Buildings,Not yet field validated,,Gaza Strip,Gaza Governorate,CE20231007SPE,"34","31"
34.475509861,31.4871079310001,"615",Building (General / Default),2023/10/10 00:00:00,WorldView-2,Very High,Destroyed,Damaged Buildings,Not yet field validated,,Gaza Strip,Gaza Governorate,CE20231007SPE,"34","31"
34.4749232830001,31.4876743940001,"616",Building (General / Default),2023/10/10 00:00:00,WorldView-2,Very High,Destroyed,Damaged Buildings,Not yet field validated,,Gaza Strip,Gaza Governorate,CE20231007SPE,"34","31"
34.474733798,31.4878222010001,"617",Building (General / Default),2023/10/10 00:00:00,WorldView-2,Very High,Destroyed,Damaged Buildings,Not yet field validated,,Gaza Strip,Gaza Governorate,CE20231007SPE,"34","31"
34.4744278850001,31.4877136010001,"618",Building (General / Default),2023/10/10 00:00:00,WorldView-2,Very High,Destroyed,Damaged Buildings,Not yet field validated,,Gaza Strip,Gaza Governorate,CE20231007SPE,"34","31"
34.4747098480001,31.48750727,"619",Building (General / Default),2023/10/10 00:00:00,WorldView-2,Very High,Severe Damage,Damaged Buildings,Not yet field validated,,Gaza strip,Gaza Governorate,CE20231007SPE,"34","31"
34.4760613760001,31.4879004510001,"620",Building (General / Default),2023/10/10 00:00:00,WorldView-2,Very High,Destroyed,Damaged Buildings,Not yet field validated,,Gaza Strip,Gaza Governorate,CE20231007SPE,"34","31"
34.4761351550001,31.487854498,"621",Building (General / Default),2023/10/10 00:00:00,WorldView-2,Very High,Destroyed,Damaged Buildings,Not yet field validated,,Gaza Strip,Gaza Governorate,CE20231007SPE,"34","31"
34.475481179,31.4878925890001,"622",Building (General / Default),2023/10/10 00:00:00,WorldView-2,Very High,Destroyed,Damaged Buildings,Not yet field validated,,Gaza Strip,Gaza Governorate,CE20231007SPE,"34","31"
34.475393356,31.4877930950001,"623",Building (General / Default),2023/10/10 00:00:00,WorldView-2,Very High,Destroyed,Damaged Buildings,Not yet field validated,,Gaza Strip,Gaza Governorate,CE20231007SPE,"34","31"
34.475344555,31.4879423610001,"624",Building (General / Default),2023/10/10 00:00:00,WorldView-2,Very High,Destroyed,Damaged Buildings,Not yet field validated,,Gaza Strip,Gaza Governorate,CE20231007SPE,"34","31"
34.47522402,31.487777281,"625",Building (General / Default),2023/10/10 00:00:00,WorldView-2,Very High,Destroyed,Damaged Buildings,Not yet field validated,,Gaza Strip,Gaza Governorate,CE20231007SPE,"34","31"
34.4751139750001,31.4878488910001,"626",Building (General / Default),2023/10/10 00:00:00,WorldView-2,Very High,Destroyed,Damaged Buildings,Not yet field validated,,Gaza Strip,Gaza Governorate,CE20231007SPE,"34","31"
34.4758338890001,31.4879066180001,"627",Building (General / Default),2023/10/10 00:00:00,WorldView-2,Very High,Destroyed,Damaged Buildings,Not yet field validated,,Gaza Strip,Gaza Governorate,CE20231007SPE,"34","31"
34.4760113830001,31.487991014,"628",Building (General / Default),2023/10/10 00:00:00,WorldView-2,Very High,Destroyed,Damaged Buildings,Not yet field validated,,Gaza Strip,Gaza Governorate,CE20231007SPE,"34","31"
34.4777936470001,31.488396976,"629",Building (General / Default),2023/10/10 00:00:00,WorldView-2,Very High,Destroyed,Damaged Buildings,Not yet field validated,,Gaza Strip,Gaza Governorate,CE20231007SPE,"34","31"
34.477701171,31.4884555020001,"630",Building (General / Default),2023/10/10 00:00:00,WorldView-2,Very High,Destroyed,Damaged Buildings,Not yet field validated,,Gaza Strip,Gaza Governorate,CE20231007SPE,"34","31"
34.4776521890001,31.4885417330001,"631",Building (General / Default),2023/10/10 00:00:00,WorldView-2,Very High,Destroyed,Damaged Buildings,Not yet field validated,,Gaza Strip,Gaza Governorate,CE20231007SPE,"34","31"
34.4775551750001,31.4886197550001,"632",Building (General / Default),2023/10/10 00:00:00,WorldView-2,Very High,Destroyed,Damaged Buildings,Not yet field validated,,Gaza Strip,Gaza Governorate,CE20231007SPE,"34","31"
34.4774323710001,31.48868436,"633",Building (General / Default),2023/10/10 00:00:00,WorldView-2,Very High,Destroyed,Damaged Buildings,Not yet field validated,,Gaza Strip,Gaza Governorate,CE20231007SPE,"34","31"
34.4773409030001,31.4887385530001,"634",Building (General / Default),2023/10/10 00:00:00,WorldView-2,Very High,Destroyed,Damaged Buildings,Not yet field validated,,Gaza Strip,Gaza Governorate,CE20231007SPE,"34","31"
34.477313166,31.488846434,"635",Building (General / Default),2023/10/10 00:00:00,WorldView-2,Very High,Destroyed,Damaged Buildings,Not yet field validated,,Gaza Strip,Gaza Governorate,CE20231007SPE,"34","31"
34.4749421500001,31.487943407,"636",Building (General / Default),2023/10/10 00:00:00,WorldView-2,Very High,Destroyed,Damaged Buildings,Not yet field validated,,Gaza Strip,Gaza Governorate,CE20231007SPE,"34","31"
34.4751793950001,31.488188929,"637",Building (General / Default),2023/10/10 00:00:00,WorldView-2,Very High,Destroyed,Damaged Buildings,Not yet field validated,,Gaza Strip,Gaza Governorate,CE20231007SPE,"34","31"
34.4744484320001,31.4882576990001,"638",Building (General / Default),2023/10/10 00:00:00,WorldView-2,Very High,Destroyed,Damaged Buildings,Not yet field validated,,Gaza Strip,Gaza Governorate,CE20231007SPE,"34","31"
34.4743120990001,31.488527214,"639",Building (General / Default),2023/10/10 00:00:00,WorldView-2,Very High,Destroyed,Damaged Buildings,Not yet field validated,,Gaza Strip,Gaza Governorate,CE20231007SPE,"34","31"
34.4753231370001,31.4892991740001,"640",School / University,2023/10/10 00:00:00,WorldView-2,Very High,Destroyed,Damaged Buildings,Not yet field validated,Omar Bin Abd Alaz,Gaza Strip,Gaza Governorate,CE20231007SPE,"34","31"
34.4756507440001,31.4893258850001,"641",School / University,2023/10/10 00:00:00,WorldView-2,Very High,Destroyed,Damaged Buildings,Not yet field validated,Omar Bin Abd Alaz,Gaza Strip,Gaza Governorate,CE20231007SPE,"34","31"
34.4754109600001,31.4890686680001,"642",School / University,2023/10/10 00:00:00,WorldView-2,Very High,Destroyed,Damaged Buildings,Not yet field validated,Omar Bin Abd Alaz,Gaza Strip,Gaza Governorate,CE20231007SPE,"34","31"
34.4744720660001,31.488890171,"643",Building (General / Default),2023/10/10 00:00:00,WorldView-2,Very High,Severe Damage,Damaged Buildings,Not yet field validated,,Gaza strip,Gaza Governorate,CE20231007SPE,"34","31"
34.4745792210001,31.4888589330001,"644",Building (General / Default),2023/10/10 00:00:00,WorldView-2,Very High,Severe Damage,Damaged Buildings,Not yet field validated,,Gaza strip,Gaza Governorate,CE20231007SPE,"34","31"
34.4746316760001,31.4886561690001,"645",Building (General / Default),2023/10/10 00:00:00,WorldView-2,Very High,Destroyed,Damaged Buildings,Not yet field validated,,Gaza Strip,Gaza Governorate,CE20231007SPE,"34","31"
34.4747791490001,31.4884178400001,"646",Building (General / Default),2023/10/10 00:00:00,WorldView-2,Very High,Destroyed,Damaged Buildings,Not yet field validated,,Gaza Strip,Gaza Governorate,CE20231007SPE,"34","31"
34.4758092450001,31.488114135,"647",Building (General / Default),2023/10/10 00:00:00,WorldView-2,Very High,Severe Damage,Damaged Buildings,Not yet field validated,,Gaza strip,Gaza Governorate,CE20231007SPE,"34","31"
34.4742337220001,31.4871423970001,"648",Building (General / Default),2023/10/10 00:00:00,WorldView-2,Very High,Destroyed,Damaged Buildings,Not yet field validated,,Gaza Strip,Gaza Governorate,CE20231007SPE,"34","31"
34.4738202990001,31.4870847920001,"649",Building (General / Default),2023/10/10 00:00:00,WorldView-2,Very High,Destroyed,Damaged Buildings,Not yet field validated,,Gaza Strip,Gaza Governorate,CE20231007SPE,"34","31"
34.474016524,31.4874393140001,"650",Building (General / Default),2023/10/10 00:00:00,WorldView-2,Very High,Severe Damage,Damaged Buildings,Not yet field validated,,Gaza strip,Gaza Governorate,CE20231007SPE,"34","31"
34.4738551900001,31.487299766,"651",Building (General / Default),2023/10/10 00:00:00,WorldView-2,Very High,Severe Damage,Damaged Buildings,Not yet field validated,,Gaza strip,Gaza Governorate,CE20231007SPE,"34","31"
34.4742100490001,31.486776315,"652",Building (General / Default),2023/10/10 00:00:00,WorldView-2,Very High,Severe Damage,Damaged Buildings,Not yet field validated,,Gaza strip,Gaza Governorate,CE20231007SPE,"34","31"
34.474315387,31.4878300400001,"653",Building (General / Default),2023/10/10 00:00:00,WorldView-2,Very High,Severe Damage,Damaged Buildings,Not yet field validated,,Gaza strip,Gaza Governorate,CE20231007SPE,"34","31"
34.4778363650001,31.485567292,"654",Building (General / Default),2023/10/10 00:00:00,WorldView-2,Very High,Severe Damage,Damaged Buildings,Not yet field validated,,Gaza strip,Gaza Governorate,CE20231007SPE,"34","31"
34.4764267370001,31.4857947740001,"655",Building (General / Default),2023/10/10 00:00:00,WorldView-2,Very High,Destroyed,Damaged Buildings,Not yet field validated,,Gaza Strip,Gaza Governorate,CE20231007SPE,"34","31"
34.474701204,31.4858544090001,"656",Building (General / Default),2023/10/10 00:00:00,WorldView-2,Very High,Severe Damage,Damaged Buildings,Not yet field validated,,Gaza strip,Gaza Governorate,CE20231007SPE,"34","31"
34.4764891560001,31.4867891380001,"657",Building (General / Default),2023/10/10 00:00:00,WorldView-2,Very High,Severe Damage,Damaged Buildings,Not yet field validated,,Gaza strip,Gaza Governorate,CE20231007SPE,"34","31"
34.4760002630001,31.486725989,"658",Building (General / Default),2023/10/10 00:00:00,WorldView-2,Very High,Destroyed,Damaged Buildings,Not yet field validated,,Gaza Strip,Gaza Governorate,CE20231007SPE,"34","31"
34.4785191140001,31.4856653150001,"659",Building (General / Default),2023/10/10 00:00:00,WorldView-2,Medium,Moderate Damage,Damaged Buildings,Not yet field validated,,Gaza Strip,Gaza Governorate,CE20231007SPE,"34","31"
34.4786062540001,31.4857026010001,"660",Building (General / Default),2023/10/10 00:00:00,WorldView-2,Medium,Moderate Damage,Damaged Buildings,Not yet field validated,,Gaza Strip,Gaza Governorate,CE20231007SPE,"34","31"
34.4745758640001,31.4849708180001,"661",Building (General / Default),2023/10/10 00:00:00,WorldView-2,Very High,Destroyed,Damaged Buildings,Not yet field validated,,Gaza Strip,Gaza Governorate,CE20231007SPE,"34","31"
34.475583149,31.4849937000001,"662",Building (General / Default),2023/10/10 00:00:00,WorldView-2,Very High,Destroyed,Damaged Buildings,Not yet field validated,,Gaza Strip,Gaza Governorate,CE20231007SPE,"34","31"
34.4754185420001,31.4838227740001,"663",Building (General / Default),2023/10/10 00:00:00,WorldView-2,Medium,Moderate Damage,Damaged Buildings,Not yet field validated,,Gaza Strip,Gaza Governorate,CE20231007SPE,"34","31"
34.476220787,31.4835090510001,"664",Building (General / Default),2023/10/10 00:00:00,WorldView-2,Medium,Moderate Damage,Damaged Buildings,Not yet field validated,,Gaza Strip,Gaza Governorate,CE20231007SPE,"34","31"
34.4801802520001,31.48518361,"665",Building (General / Default),2023/10/10 00:00:00,WorldView-2,Very High,Severe Damage,Damaged Buildings,Not yet field validated,,Gaza strip,Gaza Governorate,CE20231007SPE,"34","31"
34.4772379610001,31.4889538410001,"666",Building (General / Default),2023/10/10 00:00:00,WorldView-2,Very High,Severe Damage,Damaged Buildings,Not yet field validated,,Gaza strip,Gaza Governorate,CE20231007SPE,"34","31"
34.476424824,31.4885299090001,"667",Building (General / Default),2023/10/10 00:00:00,WorldView-2,Very High,Severe Damage,Damaged Buildings,Not yet field validated,,Gaza strip,Gaza Governorate,CE20231007SPE,"34","31"
34.4744236160001,31.4886917190001,"668",Building (General / Default),2023/10/10 00:00:00,WorldView-2,Medium,Moderate Damage,Damaged Buildings,Not yet field validated,,Gaza Strip,Gaza Governorate,CE20231007SPE,"34","31"
34.474249721,31.4889964490001,"669",Building (General / Default),2023/10/10 00:00:00,WorldView-2,Very High,Severe Damage,Damaged Buildings,Not yet field validated,,Gaza strip,Gaza Governorate,CE20231007SPE,"34","31"
34.474134071,31.4888966590001,"670",Building (General / Default),2023/10/10 00:00:00,WorldView-2,Very High,Severe Damage,Damaged Buildings,Not yet field validated,,Gaza strip,Gaza Governorate,CE20231007SPE,"34","31"
34.4740409600001,31.4887514750001,"671",Building (General / Default),2023/10/10 00:00:00,WorldView-2,Very High,Severe Damage,Damaged Buildings,Not yet field validated,,Gaza strip,Gaza Governorate,CE20231007SPE,"34","31"
34.4742372570001,31.4884212740001,"672",Building (General / Default),2023/10/10 00:00:00,WorldView-2,Medium,Moderate Damage,Damaged Buildings,Not yet field validated,,Gaza Strip,Gaza Governorate,CE20231007SPE,"34","31"
34.4758878970001,31.4899104720001,"673",Building (General / Default),2023/10/10 00:00:00,WorldView-2,Medium,Moderate Damage,Damaged Buildings,Not yet field validated,,Gaza Strip,Gaza Governorate,CE20231007SPE,"34","31"
34.4768897280001,31.4894743440001,"674",Building (General / Default),2023/10/10 00:00:00,WorldView-2,Very High,Destroyed,Damaged Buildings,Not yet field validated,,Gaza Strip,Gaza Governorate,CE20231007SPE,"34","31"
34.4766646730001,31.4897005700001,"675",Building (General / Default),2023/10/10 00:00:00,WorldView-2,Medium,Moderate Damage,Damaged Buildings,Not yet field validated,,Gaza Strip,Gaza Governorate,CE20231007SPE,"34","31"
34.4766173850001,31.4899346070001,"676",Building (General / Default),2023/10/10 00:00:00,WorldView-2,Medium,Moderate Damage,Damaged Buildings,Not yet field validated,,Gaza Strip,Gaza Governorate,CE20231007SPE,"34","31"
34.4740140840001,31.498505546,"677",Building (General / Default),2023/10/10 00:00:00,WorldView-2,Very High,Destroyed,Damaged Buildings,Not yet field validated,,Gaza Strip,Gaza Governorate,CE20231007SPE,"34","31"
34.472015963,31.4889749420001,"678",Building (General / Default),2023/10/10 00:00:00,WorldView-2,Very High,Destroyed,Damaged Buildings,Not yet field validated,,Gaza Strip,Gaza Governorate,CE20231007SPE,"34","31"
34.4721939790001,31.48912556,"679",Building (General / Default),2023/10/10 00:00:00,WorldView-2,Very High,Destroyed,Damaged Buildings,Not yet field validated,,Gaza Strip,Gaza Governorate,CE20231007SPE,"34","31"
34.48008866,31.4837685570001,"680",Building (General / Default),2023/10/10 00:00:00,WorldView-2,Very High,Destroyed,Damaged Buildings,Not yet field validated,,Gaza Strip,Gaza Governorate,CE20231007SPE,"34","31"
34.4806182130001,31.4838097450001,"681",Building (General / Default),2023/10/10 00:00:00,WorldView-2,Very High,Destroyed,Damaged Buildings,Not yet field validated,,Gaza Strip,Gaza Governorate,CE20231007SPE,"34","31"
34.4804671110001,31.4840103690001,"682",Building (General / Default),2023/10/10 00:00:00,WorldView-2,Very High,Destroyed,Damaged Buildings,Not yet field validated,,Gaza Strip,Gaza Governorate,CE20231007SPE,"34","31"
34.4807904260001,31.483307757,"683",Building (General / Default),2023/10/10 00:00:00,WorldView-2,Very High,Destroyed,Damaged Buildings,Not yet field validated,,Gaza Strip,Gaza Governorate,CE20231007SPE,"34","31"
34.4803799680001,31.4836247640001,"684",Building (General / Default),2023/10/10 00:00:00,WorldView-2,Very High,Destroyed,Damaged Buildings,Not yet field validated,,Gaza Strip,Gaza Governorate,CE20231007SPE,"34","31"
34.479735271,31.48298865,"685",Building (General / Default),2023/10/10 00:00:00,WorldView-2,Very High,Severe Damage,Damaged Buildings,Not yet field validated,,Gaza strip,Gaza Governorate,CE20231007SPE,"34","31"
34.4796865960001,31.4837655890001,"686",Building (General / Default),2023/10/10 00:00:00,WorldView-2,Very High,Destroyed,Damaged Buildings,Not yet field validated,,Gaza Strip,Gaza Governorate,CE20231007SPE,"34","31"
34.4810921910001,31.4847125190001,"687",Building (General / Default),2023/10/10 00:00:00,WorldView-2,Very High,Destroyed,Damaged Buildings,Not yet field validated,,Gaza Strip,Gaza Governorate,CE20231007SPE,"34","31"
34.4810359830001,31.484624388,"688",Building (General / Default),2023/10/10 00:00:00,WorldView-2,Very High,Destroyed,Damaged Buildings,Not yet field validated,,Gaza Strip,Gaza Governorate,CE20231007SPE,"34","31"
34.4807785150001,31.4845036920001,"689",Building (General / Default),2023/10/10 00:00:00,WorldView-2,Very High,Severe Damage,Damaged Buildings,Not yet field validated,,Gaza strip,Gaza Governorate,CE20231007SPE,"34","31"
34.4807398010001,31.4842213240001,"690",Building (General / Default),2023/10/10 00:00:00,WorldView-2,Very High,Severe Damage,Damaged Buildings,Not yet field validated,,Gaza strip,Gaza Governorate,CE20231007SPE,"34","31"
34.481449017,31.4844794800001,"691",Building (General / Default),2023/10/10 00:00:00,WorldView-2,Very High,Severe Damage,Damaged Buildings,Not yet field validated,,Gaza strip,Gaza Governorate,CE20231007SPE,"34","31"
34.4822298270001,31.4851443160001,"692",Building (General / Default),2023/10/10 00:00:00,WorldView-2,Medium,Moderate Damage,Damaged Buildings,Not yet field validated,,Gaza Strip,Gaza Governorate,CE20231007SPE,"34","31"
34.4823581130001,31.485746958,"693",Building (General / Default),2023/10/10 00:00:00,WorldView-2,Medium,Moderate Damage,Damaged Buildings,Not yet field validated,,Gaza Strip,Gaza Governorate,CE20231007SPE,"34","31"
34.4830499490001,31.4863363200001,"694",Building (General / Default),2023/10/10 00:00:00,WorldView-2,Medium,Moderate Damage,Damaged Buildings,Not yet field validated,,Gaza Strip,Gaza Governorate,CE20231007SPE,"34","31"
34.478482092,31.4844728310001,"695",Building (General / Default),2023/10/10 00:00:00,WorldView-2,Medium,Moderate Damage,Damaged Buildings,Not yet field validated,,Gaza Strip,Gaza Governorate,CE20231007SPE,"34","31"
34.4740393150001,31.4845169900001,"696",Building (General / Default),2023/10/10 00:00:00,WorldView-2,Very High,Severe Damage,Damaged Buildings,Not yet field validated,,Gaza strip,Gaza Governorate,CE20231007SPE,"34","31"
34.4748352290001,31.4851625490001,"697",Building (General / Default),2023/10/10 00:00:00,WorldView-2,Medium,Moderate Damage,Damaged Buildings,Not yet field validated,,Gaza Strip,Gaza Governorate,CE20231007SPE,"34","31"
34.4735048060001,31.4851104460001,"698",Building (General / Default),2023/10/10 00:00:00,WorldView-2,Very High,Destroyed,Damaged Buildings,Not yet field validated,,Gaza Strip,Gaza Governorate,CE20231007SPE,"34","31"
34.4734160260001,31.4853819840001,"699",Building (General / Default),2023/10/10 00:00:00,WorldView-2,Very High,Destroyed,Damaged Buildings,Not yet field validated,,Gaza Strip,Gaza Governorate,CE20231007SPE,"34","31"
34.473721632,31.4858268580001,"700",Building (General / Default),2023/10/10 00:00:00,WorldView-2,Very High,Destroyed,Damaged Buildings,Not yet field validated,,Gaza Strip,Gaza Governorate,CE20231007SPE,"34","31"
34.4737585770001,31.4859244830001,"701",Building (General / Default),2023/10/10 00:00:00,WorldView-2,Very High,Destroyed,Damaged Buildings,Not yet field validated,,Gaza Strip,Gaza Governorate,CE20231007SPE,"34","31"
34.473201196,31.4852703860001,"702",Building (General / Default),2023/10/10 00:00:00,WorldView-2,Very High,Severe Damage,Damaged Buildings,Not yet field validated,,Gaza strip,Gaza Governorate,CE20231007SPE,"34","31"
34.473168075,31.4854035150001,"703",Building (General / Default),2023/10/10 00:00:00,WorldView-2,Very High,Severe Damage,Damaged Buildings,Not yet field validated,,Gaza strip,Gaza Governorate,CE20231007SPE,"34","31"
34.4730485200001,31.485615006,"704",Building (General / Default),2023/10/10 00:00:00,WorldView-2,Very High,Severe Damage,Damaged Buildings,Not yet field validated,,Gaza strip,Gaza Governorate,CE20231007SPE,"34","31"
34.4727158050001,31.4864767110001,"705",Building (General / Default),2023/10/10 00:00:00,WorldView-2,Very High,Destroyed,Damaged Buildings,Not yet field validated,,Gaza Strip,Gaza Governorate,CE20231007SPE,"34","31"
34.4728160770001,31.4869339670001,"706",Building (General / Default),2023/10/10 00:00:00,WorldView-2,Very High,Destroyed,Damaged Buildings,Not yet field validated,,Gaza Strip,Gaza Governorate,CE20231007SPE,"34","31"
34.4731063610001,31.4871059450001,"707",Building (General / Default),2023/10/10 00:00:00,WorldView-2,Very High,Destroyed,Damaged Buildings,Not yet field validated,,Gaza Strip,Gaza Governorate,CE20231007SPE,"34","31"
34.4724732110001,31.4872625120001,"708",Building (General / Default),2023/10/10 00:00:00,WorldView-2,Very High,Destroyed,Damaged Buildings,Not yet field validated,,Gaza Strip,Gaza Governorate,CE20231007SPE,"34","31"
34.4727413580001,31.4872170400001,"709",Building (General / Default),2023/10/10 00:00:00,WorldView-2,Medium,Moderate Damage,Damaged Buildings,Not yet field validated,,Gaza Strip,Gaza Governorate,CE20231007SPE,"34","31"
34.472974681,31.487032216,"710",Building (General / Default),2023/10/10 00:00:00,WorldView-2,Medium,Moderate Damage,Damaged Buildings,Not yet field validated,,Gaza Strip,Gaza Governorate,CE20231007SPE,"34","31"
34.472630484,31.4873521730001,"711",Building (General / Default),2023/10/10 00:00:00,WorldView-2,Medium,Moderate Damage,Damaged Buildings,Not yet field validated,,Gaza Strip,Gaza Governorate,CE20231007SPE,"34","31"
34.472236175,31.486728772,"712",Building (General / Default),2023/10/10 00:00:00,WorldView-2,Medium,Moderate Damage,Damaged Buildings,Not yet field validated,,Gaza Strip,Gaza Governorate,CE20231007SPE,"34","31"
34.4720778600001,31.4870548230001,"713",Building (General / Default),2023/10/10 00:00:00,WorldView-2,Medium,Moderate Damage,Damaged Buildings,Not yet field validated,,Gaza Strip,Gaza Governorate,CE20231007SPE,"34","31"
34.4730254520001,31.4876122970001,"714",Building (General / Default),2023/10/10 00:00:00,WorldView-2,Very High,Destroyed,Damaged Buildings,Not yet field validated,,Gaza Strip,Gaza Governorate,CE20231007SPE,"34","31"
34.4723301910001,31.4873483490001,"715",Building (General / Default),2023/10/10 00:00:00,WorldView-2,Very High,Destroyed,Damaged Buildings,Not yet field validated,,Gaza Strip,Gaza Governorate,CE20231007SPE,"34","31"
34.472560838,31.487516182,"716",Building (General / Default),2023/10/10 00:00:00,WorldView-2,Medium,Moderate Damage,Damaged Buildings,Not yet field validated,,Gaza Strip,Gaza Governorate,CE20231007SPE,"34","31"
34.472706137,31.4876065060001,"717",Building (General / Default),2023/10/10 00:00:00,WorldView-2,Medium,Moderate Damage,Damaged Buildings,Not yet field validated,,Gaza Strip,Gaza Governorate,CE20231007SPE,"34","31"
34.4728609410001,31.487688183,"718",Building (General / Default),2023/10/10 00:00:00,WorldView-2,Medium,Moderate Damage,Damaged Buildings,Not yet field validated,,Gaza Strip,Gaza Governorate,CE20231007SPE,"34","31"
34.4729935510001,31.487762214,"719",Building (General / Default),2023/10/10 00:00:00,WorldView-2,Medium,Moderate Damage,Damaged Buildings,Not yet field validated,,Gaza Strip,Gaza Governorate,CE20231007SPE,"34","31"
34.4732465630001,31.4887158540001,"720",Building (General / Default),2023/10/10 00:00:00,WorldView-2,Medium,Moderate Damage,Damaged Buildings,Not yet field validated,,Gaza Strip,Gaza Governorate,CE20231007SPE,"34","31"
34.469446598,31.48025605,"721",Building (General / Default),2023/10/10 00:00:00,WorldView-2,Medium,Moderate Damage,Damaged Buildings,Not yet field validated,,Gaza Strip,Gaza Governorate,CE20231007SPE,"34","31"
34.4695120980001,31.4803694130001,"722",Building (General / Default),2023/10/10 00:00:00,WorldView-2,Medium,Moderate Damage,Damaged Buildings,Not yet field validated,,Gaza Strip,Gaza Governorate,CE20231007SPE,"34","31"
34.46887838,31.480672858,"723",Building (General / Default),2023/10/10 00:00:00,WorldView-2,Very High,Severe Damage,Damaged Buildings,Not yet field validated,,Gaza strip,Gaza Governorate,CE20231007SPE,"34","31"
34.4687301800001,31.480790546,"724",Building (General / Default),2023/10/10 00:00:00,WorldView-2,Medium,Moderate Damage,Damaged Buildings,Not yet field validated,,Gaza Strip,Gaza Governorate,CE20231007SPE,"34","31"
34.4484550990001,31.4847320950001,"725",Building (General / Default),2023/10/10 00:00:00,WorldView-2,Very High,Destroyed,Damaged Buildings,Not yet field validated,,Gaza Strip,Gaza Governorate,CE20231007SPE,"34","31"
34.4466244390001,31.448700784,"726",Building (General / Default),2023/10/10 00:00:00,WorldView-2,Very High,Destroyed,Damaged Buildings,Not yet field validated,,Gaza Strip,Gaza Governorate,CE20231007SPE,"34","31"
34.4357158070001,31.4426277190001,"730",Building (General / Default),2023/10/10 00:00:00,WorldView-2,Very High,Severe Damage,Damaged Buildings,Not yet field validated,,Gaza strip,Gaza Governorate,CE20231007SPE,"34","31"
34.4425565330001,31.4563310110001,"731",Building (General / Default),2023/10/10 00:00:00,WorldView-2,Very High,Destroyed,Damaged Buildings,Not yet field validated,,Gaza Strip,Gaza Governorate,CE20231007SPE,"34","31"
34.4425906600001,31.4564204660001,"732",Building (General / Default),2023/10/10 00:00:00,WorldView-2,Very High,Destroyed,Damaged Buildings,Not yet field validated,,Gaza Strip,Gaza Governorate,CE20231007SPE,"34","31"
34.4426998440001,31.456613986,"733",Building (General / Default),2023/10/10 00:00:00,WorldView-2,Very High,Destroyed,Damaged Buildings,Not yet field validated,,Gaza Strip,Gaza Governorate,CE20231007SPE,"34","31"
34.4426708760001,31.4567002360001,"734",Building (General / Default),2023/10/10 00:00:00,WorldView-2,Very High,Destroyed,Damaged Buildings,Not yet field validated,,Gaza Strip,Gaza Governorate,CE20231007SPE,"34","31"
34.44238119,31.4561550440001,"735",Building (General / Default),2023/10/10 00:00:00,WorldView-2,Very High,Destroyed,Damaged Buildings,Not yet field validated,,Gaza Strip,Gaza Governorate,CE20231007SPE,"34","31"
34.4429385990001,31.4566852770001,"736",Building (General / Default),2023/10/10 00:00:00,WorldView-2,Very High,Destroyed,Damaged Buildings,Not yet field validated,,Gaza Strip,Gaza Governorate,CE20231007SPE,"34","31"
34.4428192440001,31.456740847,"737",Building (General / Default),2023/10/10 00:00:00,WorldView-2,Very High,Destroyed,Damaged Buildings,Not yet field validated,,Gaza Strip,Gaza Governorate,CE20231007SPE,"34","31"
34.442856039,31.4565829680001,"738",Building (General / Default),2023/10/10 00:00:00,WorldView-2,Very High,Destroyed,Damaged Buildings,Not yet field validated,,Gaza Strip,Gaza Governorate,CE20231007SPE,"34","31"
34.4423909760001,31.4571250810001,"739",Building (General / Default),2023/10/10 00:00:00,WorldView-2,Very High,Destroyed,Damaged Buildings,Not yet field validated,,Gaza Strip,Gaza Governorate,CE20231007SPE,"34","31"
34.4422135290001,31.456714644,"740",Building (General / Default),2023/10/10 00:00:00,WorldView-2,Very High,Destroyed,Damaged Buildings,Not yet field validated,,Gaza Strip,Gaza Governorate,CE20231007SPE,"34","31"
34.4436262020001,31.4568471150001,"741",Building (General / Default),2023/10/10 00:00:00,WorldView-2,Very High,Destroyed,Damaged Buildings,Not yet field validated,,Gaza Strip,Gaza Governorate,CE20231007SPE,"34","31"
34.4424364980001,31.4564779600001,"742",Building (General / Default),2023/10/10 00:00:00,WorldView-2,Medium,Moderate Damage,Damaged Buildings,Not yet field validated,,Gaza Strip,Gaza Governorate,CE20231007SPE,"34","31"
34.442530618,31.4561768340001,"743",Building (General / Default),2023/10/10 00:00:00,WorldView-2,Medium,Moderate Damage,Damaged Buildings,Not yet field validated,,Gaza Strip,Gaza Governorate,CE20231007SPE,"34","31"
34.4423480130001,31.456288365,"744",Building (General / Default),2023/10/10 00:00:00,WorldView-2,Medium,Moderate Damage,Damaged Buildings,Not yet field validated,,Gaza Strip,Gaza Governorate,CE20231007SPE,"34","31"
34.4429768270001,31.4568903040001,"745",Building (General / Default),2023/10/10 00:00:00,WorldView-2,Medium,Moderate Damage,Damaged Buildings,Not yet field validated,,Gaza Strip,Gaza Governorate,CE20231007SPE,"34","31"
34.4426119760001,31.4570262060001,"746",Building (General / Default),2023/10/10 00:00:00,WorldView-2,Medium,Moderate Damage,Damaged Buildings,Not yet field validated,,Gaza Strip,Gaza Governorate,CE20231007SPE,"34","31"
34.4420091540001,31.4568092390001,"747",Building (General / Default),2023/10/10 00:00:00,WorldView-2,Medium,Moderate Damage,Damaged Buildings,Not yet field validated,,Gaza Strip,Gaza Governorate,CE20231007SPE,"34","31"
34.441960227,31.4577775530001,"748",Building (General / Default),2023/10/10 00:00:00,WorldView-2,Very High,Destroyed,Damaged Buildings,Not yet field validated,,Gaza Strip,Gaza Governorate,CE20231007SPE,"34","31"
34.490980085,31.5156881330001,"749",Building (General / Default),2023/10/10 00:00:00,WorldView-2,Very High,Destroyed,Damaged Buildings,Not yet field validated,,Gaza strip,Gaza Governorate,CE20231007PSE,"34","32"
